"District IRN","District Name","County","Region","Address","City and Zip Code","Phone #","Superintendent","Four Year Longitudinal Graduation Rate - Class of 2016","Letter Grade of 4 year Graduation Rate 2016","Four Year Graduation Rate Numerator - Class of 2016","Four Year Graduation Rate Denominator - Class of 2016","Four Year Graduation Rate - Similar District Average","Four Year Graduation Rate - Statewide Average","Watermark"
"000442","Manchester Local","Adams","Region 14","130 Wayne Frye Dr","Manchester, OH, 45144-9314","(937) 549-4777","Brian E. Rau","95.4","A","62","65","90.6","83.6",""
"043489","Akron City","Summit","Region 8","70 N Broadway St","Akron, OH, 44308-1911","(330) 761-1661","David W. James","74.3","F","1185","1595","74.8","83.6",""
"043497","Alliance City","Stark","Region 9","200 Glamorgan St","Alliance, OH, 44601-2946","(330) 821-2100","Jeffery S. Talbert","88.6","C","179","202","82.7","83.6",""
"043505","Ashland City","Ashland","Region 7","PO Box 160","Ashland, OH, 44805-0160","(419) 289-1117","Douglas J. Marrah","94.2","A","226","240","92.6","83.6",""
"043513","Ashtabula Area City","Ashtabula","Region 5","2630 W 13th St","Ashtabula, OH, 44004-2405","(440) 992-1201","Melissa D. Watson","78.6","F","217","276","84.8","83.6",""
"043521","Athens City","Athens","Region 16","25 S Plains Rd","The Plains, OH, 45780-1333","(740) 797-4516","Thomas J. Gibbs","89.1","B","179","201","93.6","83.6",""
"043539","Barberton City","Summit","Region 8","479 Norton Ave","Barberton, OH, 44203-1737","(330) 753-1025","Jeffrey M. Ramnytz","86.7","C","247","285","86.8","83.6",""
"043547","Bay Village City","Cuyahoga","Region 3","377 Dover Center Rd","Bay Village, OH, 44140-2304","(440) 617-7300","Clinton L. Keener","98.3","A","172","175","96.8","83.6",""
"043554","Beachwood City","Cuyahoga","Region 3","24601 Fairmount Blvd","Beachwood, OH, 44122-2298","(216) 464-2600","Robert P. Hardis","97.6","A","120","123","96.3","83.6",""
"043562","Bedford City","Cuyahoga","Region 3","475 Northfield Rd","Bedford, OH, 44146-2201","(440) 439-1500","Andrea Celico","84.0","C","247","294","85.0","83.6",""
"043570","Bellaire Local","Belmont","Region 12","340 34th St","Bellaire, OH, 43906-1589","(740) 676-1826","Darren C. Jenkins","83.1","D","74","89","92.2","83.6",""
"043588","Bellefontaine City","Logan","Region 6","820 Ludlow Rd","Bellefontaine, OH, 43311-1852","(937) 593-9060","Bradley J. Hall","93.8","A","165","176","91.0","83.6",""
"043596","Bellevue City","Huron","Region 2","125 North St","Bellevue, OH, 44811-1423","(419) 484-5000","Kim M. Schubert","96.2","A","153","159","93.8","83.6",""
"043604","Belpre City","Washington","Region 16","2014 Rockland Ave","Belpre, OH, 45714-1118","(740) 423-9511","Dwight A. Dunn","85.5","C","65","76","92.6","83.6",""
"043612","Berea City","Cuyahoga","Region 3","390 Fair St","Berea, OH, 44017-2308","(216) 898-8300","Michael R. Sheppard","91.7","B","486","530","92.5","83.6",""
"043620","Bexley City","Franklin","Region 11","348 S Cassingham Rd","Bexley, OH, 43209-1897","(614) 231-7611","Kimberly P. Miller","95.0","A","152","160","96.7","83.6",""
"043638","Bowling Green City School District","Wood","Region 1","137 Clough St","Bowling Green, OH, 43402-2901","(419) 352-3576","Francis R. Scruci","94.2","A","227","241","93.5","83.6",""
"043646","Brecksville-Broadview Heights City","Cuyahoga","Region 3","6638 Mill Rd","Brecksville, OH, 44141-1512","(440) 740-4000","Joelle M. Magyar","97.0","A","360","371","96.4","83.6",""
"043653","Brooklyn City","Cuyahoga","Region 3","9200 Biddulph Rd","Brooklyn, OH, 44144-2614","(216) 485-8100","Mark G. Gleichauf","91.5","B","118","129","91.3","83.6",""
"043661","Brunswick City","Medina","Region 8","3643 Center Rd","Brunswick, OH, 44212-3619","(330) 225-7731","Michael D. Mayell","95.0","A","550","579","93.7","83.6",""
"043679","Bryan City","Williams","Region 1","1350 Fountain Grove Dr","Bryan, OH, 43506-8733","(419) 636-6973","Diana L. Savage","93.7","A","118","126","93.8","83.6",""
"043687","Bucyrus City","Crawford","Region 7","170 Plymouth St","Bucyrus, OH, 44820-1627","(419) 562-4045","Kevin D. Kimmel","86.0","C","74","86","89.3","83.6",""
"043695","Cambridge City","Guernsey","Region 12","518 S 8th St","Cambridge, OH, 43725-8865","(740) 439-5021","Daniel A. Coffman","81.2","D","125","154","91.1","83.6",""
"043703","Campbell City","Mahoning","Region 5","280 6th St","Campbell, OH, 44405-1325","(330) 799-6726","Matthew L. Bowen","85.9","C","73","85","82.8","83.6",""
"043711","Canton City","Stark","Region 9","1312 5th St SW","Canton, OH, 44707-4657","(330) 438-2500","Adrian E. Allison","76.2","F","493","647","78.7","83.6",""
"043729","Celina City","Mercer","Region 6","585 E Livingston St","Celina, OH, 45822-1742","(419) 586-8300","Kenneth J. Schmiesing","91.9","B","181","197","93.3","83.6",""
"043737","Centerville City","Montgomery","Region 10","111 Virginia Ave","Centerville, OH, 45458-2249","(937) 433-8841","Thomas J. Henderson","95.1","A","674","709","95.7","83.6",""
"043745","Chillicothe City","Ross","Region 15","425 Yoctangee Pkwy","Chillicothe, OH, 45601-1663","(740) 775-4250","Jon C. Saxton","83.8","D","218","260","85.3","83.6",""
"043752","Cincinnati City","Hamilton","Region 13","PO Box 5381","Cincinnati, OH, 45201-5381","(513) 363-0000","Catherine L. Mitchell","72.8","F","1584","2176","73.1","83.6",""
"043760","Circleville City","Pickaway","Region 11","388 Clark Dr","Circleville, OH, 43113-1517","(740) 474-4340","Jonathan E. Davis","94.0","A","156","166","88.0","83.6",""
"043778","Claymont City","Tuscarawas","Region 12","201 N 3rd St","Dennison, OH, 44621-1237","(740) 922-5478","John A. Rocchi","88.0","C","139","158","91.7","83.6",""
"043786","Cleveland Municipal","Cuyahoga","Region 3","1111 Superior Ave E","Cleveland, OH, 44114-2522","(216) 574-8000","Eric S. Gordon","72.1","F","1937","2687","73.4","83.6",""
"043794","Cleveland Heights-University Heights City","Cuyahoga","Region 3","2155 Miramar Blvd","University Heights, OH, 44118-3301","(216) 371-7171","Talisa L. Dixon","85.6","C","334","390","91.2","83.6",""
"043802","Columbus City","Franklin","Region 11","1091 King Ave","Columbus, OH, 43212-2204","(614) 365-5000","James D. Good","74.1","F","2191","2955","72.7","83.6",""
"043810","Conneaut Area City","Ashtabula","Region 5","230 Gateway Ave","Conneaut, OH, 44030-2355","(440) 593-7200","Lori A. Riley","86.9","C","106","122","90.0","83.6",""
"043828","Coshocton City","Coshocton","Region 12","1207 Cambridge Rd","Coshocton, OH, 43812-2742","(740) 622-1901","David L. Hire","94.5","A","103","109","87.3","83.6",""
"043836","Cuyahoga Falls City","Summit","Region 8","PO Box 396","Cuyahoga Falls, OH, 44222-0396","(330) 926-3800","Todd M. Nichols","90.0","B","333","370","91.5","83.6",""
"043844","Dayton City","Montgomery","Region 10","115 S Ludlow St","Dayton, OH, 45402-1812","(937) 542-3000","Rhonda A. Corr","72.6","F","717","988","76.6","83.6",""
"043851","Deer Park Community City","Hamilton","Region 13","4131 Matson Ave","Cincinnati, OH, 45236-2509","(513) 891-0222","Jack W. Phillips III","94.5","A","86","91","92.7","83.6",""
"043869","Defiance City","Defiance","Region 1","629 Arabella St","Defiance, OH, 43512-2856","(419) 782-0070","Michael R. Struble","87.3","C","158","181","89.7","83.6",""
"043877","Delaware City","Delaware","Region 11","74 W William St","Delaware, OH, 43015-2339","(740) 833-1100","Paul A. Craft","92.6","B","311","336","93.4","83.6",""
"043885","Delphos City","Allen","Region 6","234 N Jefferson St","Delphos, OH, 45833-1690","(419) 692-2509","Kevin J. Wolfe","95.4","A","83","87","91.7","83.6",""
"043893","Dover City","Tuscarawas","Region 12","219 W 6th St","Dover, OH, 44622-2803","(330) 364-1906","Carla J. Birney","91.3","B","178","195","93.8","83.6",""
"043901","East Cleveland City School District","Cuyahoga","Region 3","1843 Stanwood Rd","East Cleveland, OH, 44112-2901","(216) 268-6570","Myrna L. Corley","68.0","F","153","225","78.9","83.6",""
"043919","East Liverpool City","Columbiana","Region 5","810 W 8th St","East Liverpool, OH, 43920-2302","(330) 385-7132","Randy L. Taylor","89.9","B","125","139","89.5","83.6",""
"043927","East Palestine City","Columbiana","Region 5","200 West North Avenue","East Palestine, OH, 44413-1779","(330) 426-4191","Traci J. Hostetler","94.0","A","78","83","92.3","83.6",""
"043935","Eaton Community City","Preble","Region 10","306 Eaton Lewisburg Rd","Eaton, OH, 45320-1105","(937) 456-1107","Barbara L. Curry","92.1","B","152","165","93.7","83.6",""
"043943","Elyria City Schools","Lorain","Region 2","42101 Griswold Rd","Elyria, OH, 44035-2117","(440) 284-8000","Thomas G. Jama","84.8","C","385","454","84.1","83.6",""
"043950","Euclid City","Cuyahoga","Region 3","651 E 222nd St","Euclid, OH, 44123-2031","(216) 261-2900","Charles A. Smialek","75.2","F","348","463","81.6","83.6","Third Grade Reading Guarantee data may be incomplete due to local reporting error. Contact district for more information."
"043968","Fairborn City","Greene","Region 10","306 E Whittier Ave","Fairborn, OH, 45324-5313","(937) 878-3961","Mark O. North","89.3","B","226","253","87.0","83.6",""
"043976","Fairview Park City","Cuyahoga","Region 3","21620 Mastick Rd # A","Fairview Park, OH, 44126-3047","(440) 331-5500","William W. Wagner","93.1","A","134","144","93.8","83.6",""
"043984","Findlay City","Hancock","Region 1","2019 Broad Ave","Findlay, OH, 45840-2749","(419) 425-8212","Edward P. Kurt","91.8","B","326","355","91.8","83.6",""
"043992","Fostoria City","Seneca","Region 1","1001 Park Ave","Fostoria, OH, 44830-1455","(419) 435-8163","Andrew R. Sprang","86.0","C","117","136","85.9","83.6",""
"044008","Franklin City","Warren","Region 13","150 E 6th St","Franklin, OH, 45005-2559","(937) 746-1699","Michael D. Sander","93.1","A","189","203","91.1","83.6",""
"044016","Fremont City","Sandusky","Region 1","500 W State St","Fremont, OH, 43420-2572","(419) 332-6454","Jon C. Detwiler","93.4","A","271","290","85.2","83.6",""
"044024","Galion City","Crawford","Region 7","470 Portland Way N","Galion, OH, 44833-1115","(419) 468-3432","James M. Grubbs","85.6","C","119","139","92.0","83.6",""
"044032","Gallipolis City","Gallia","Region 16","61 State St","Gallipolis, OH, 45631-1131","(740) 446-3211","Craig D. Wright","88.7","C","118","133","93.0","83.6",""
"044040","Garfield Heights City Schools","Cuyahoga","Region 3","5640 Briarcliff Dr","Garfield Heights, OH, 44125-4158","(216) 475-8100","Terrance S. Olszewski","82.5","D","260","315","81.5","83.6",""
"044057","Geneva Area City","Ashtabula","Region 5","135 S Eagle St","Geneva, OH, 44041-1513","(440) 466-4831","Eric M. Kujala","92.6","B","174","188","90.3","83.6",""
"044065","Girard City School District","Trumbull","Region 5","100 W Main St Ste 2","Girard, OH, 44420-2598","(330) 545-2596","David M. Cappuzzello","90.1","B","109","121","90.5","83.6",""
"044073","Grandview Heights Schools","Franklin","Region 11","1587 W 3rd Ave","Columbus, OH, 43212-2825","(614) 481-3600","Andrew K. Culp","95.8","A","69","72","96.9","83.6",""
"044081","Winton Woods City","Hamilton","Region 13","1215 W Kemper Rd","Cincinnati, OH, 45240-1617","(513) 619-2300","Anthony G. Smith","83.2","D","258","310","83.7","83.6",""
"044099","Greenville City","Darke","Region 10","215 W 4th St","Greenville, OH, 45331-1423","(937) 548-3185","Douglas W. Fries","90.4","B","206","228","91.8","83.6",""
"044107","Hamilton City","Butler","Region 13","PO Box 627","Hamilton, OH, 45012-0627","(513) 887-5000","Anthony T. Orr","76.4","F","444","581","84.6","83.6",""
"044115","Heath City","Licking","Region 11","107 Lancaster Dr","Heath, OH, 43056-1220","(740) 522-2816","Trevor R. Thomas","92.4","B","122","132","93.5","83.6",""
"044123","Hillsboro City","Highland","Region 14","39 Willetsville Pike","Hillsboro, OH, 45133-8277","(937) 393-3475","Brian T. Davis","88.7","C","204","230","91.4","83.6",""
"044131","Huron City Schools","Erie","Region 2","712 Cleveland Rd E","Huron, OH, 44839-1871","(419) 433-1234","Dennis M. Muratori","94.7","A","107","113","96.3","83.6",""
"044149","Ironton City","Lawrence","Region 15","105 S 5th St","Ironton, OH, 45638-1426","(740) 532-4133","William D. Nance","98.1","A","102","104","87.2","83.6",""
"044156","Jackson City","Jackson","Region 16","450 Vaughn St","Jackson, OH, 45640-1944","(740) 286-6442","Phillip R. Howard","97.2","A","172","177","92.8","83.6",""
"044164","Kent City","Portage","Region 8","321 N Depeyster St","Kent, OH, 44240-2514","(330) 673-6515","George J. Joseph","93.7","A","268","286","93.3","83.6",""
"044172","Kenton City","Hardin","Region 6","222 W Carrol St","Kenton, OH, 43326-1202","(419) 673-0775","Jennifer M. Penczarski","92.1","B","128","139","90.5","83.6",""
"044180","Kettering City School District","Montgomery","Region 10","3750 Far Hills Ave","Kettering, OH, 45429-2506","(937) 499-1430","L Scott S. Inskeep","92.5","B","505","546","92.3","83.6",""
"044198","Lakewood City","Cuyahoga","Region 3","1470 Warren Rd","Lakewood, OH, 44107-3918","(216) 529-4092","Jeffrey W. Patterson","84.6","C","296","350","92.3","83.6",""
"044206","Lancaster City","Fairfield","Region 11","345 E Mulberry St","Lancaster, OH, 43130-3166","(740) 687-7300","Steven M. Wigton","91.4","B","402","440","92.1","83.6",""
"044214","Lebanon City","Warren","Region 13","700 Holbrook Ave","Lebanon, OH, 45036-1648","(513) 934-5770","Todd Yohey","94.3","A","410","435","93.7","83.6",""
"044222","Lima City","Allen","Region 6","755 Saint Johns Ave","Lima, OH, 45804-1552","(419) 996-3400","Jill A. Ackerman","69.2","F","173","250","82.0","83.6",""
"044230","Lockland Local","Hamilton","Region 13","210 N Cooper Ave","Cincinnati, OH, 45215-3011","(513) 563-5000","Frederick T. Jebens","74.5","F","38","51","83.9","83.6",""
"044248","Logan-Hocking Local","Hocking","Region 16","2019 E Front St","Logan, OH, 43138","(740) 385-8517","Monte D. Bainter II","95.9","A","304","317","93.2","83.6",""
"044255","London City","Madison","Region 11","380 Elm St 2nd Fl","London, OH, 43140-9220","(740) 852-5700","Louis A. Kramer","92.9","B","117","126","93.3","83.6",""
"044263","Lorain City","Lorain","Region 2","2601 Pole Ave","Lorain, OH, 44052-4301","(440) 830-7271","Jeffrey M. Graham","71.4","F","409","573","78.8","83.6",""
"044271","Loveland City","Hamilton","Region 13","757 S Lebanon Rd","Loveland, OH, 45140-9308","(513) 683-5600","Amy C. Crouse","96.3","A","308","320","95.9","83.6",""
"044289","Madeira City","Hamilton","Region 13","7465 Loannes Dr","Cincinnati, OH, 45243-1851","(513) 985-6070","Kenji Matsudo","97.3","A","109","112","96.8","83.6",""
"044297","Mansfield City","Richland","Region 7","PO Box 1448","Mansfield, OH, 44901-1448","(419) 525-6400","Brian K. Garverick","65.5","F","148","226","84.5","83.6",""
"044305","Maple Heights City","Cuyahoga","Region 3","5740 Lawn Ave","Maple Heights, OH, 44137-3870","(216) 587-6100","Charles T. Keenan","78.6","F","198","252","79.7","83.6",""
"044313","Mariemont City","Hamilton","Region 13","2 Warrior Way","Cincinnati, OH, 45227-3600","(513) 272-7500","Steven E. Estepp","97.6","A","120","123","96.7","83.6",""
"044321","Marietta City","Washington","Region 16","111 Academy Dr","Marietta, OH, 45750-8053","(740) 374-6500","William T. Hampton","81.7","D","183","224","92.3","83.6",""
"044339","Marion City","Marion","Region 7","420 Presidential Dr","Marion, OH, 43302-5173","(740) 387-3300","Stephen P. Fujii","88.8","C","231","260","83.2","83.6",""
"044347","Martins Ferry City","Belmont","Region 12","5001 Ayers Limestone Rd","Martins Ferry, OH, 43935-1588","(740) 633-1732","James Fogle","91.6","B","87","95","92.6","83.6",""
"044354","Massillon City","Stark","Region 9","930 17th St NE","Massillon, OH, 44646-4853","(330) 830-3900","Richard D. Goodright","86.6","C","264","305","84.0","83.6",""
"044362","Maumee City","Lucas","Region 1","716 Askin St","Maumee, OH, 43537-3602","(419) 893-3200","Todd M. Cramer","97.5","A","199","204","93.2","83.6",""
"044370","Mayfield City","Cuyahoga","Region 3","1101 S.O.M. Center Road","Mayfield Heights, OH, 44124-2006","(440) 995-7201","KEITH W. KELLY","93.3","A","320","343","95.4","83.6",""
"044388","Medina City SD","Medina","Region 8","739 Weymouth Rd","Medina, OH, 44256-2037","(330) 636-3031","Aaron J. Sable","96.8","A","536","554","94.9","83.6",""
"044396","Miamisburg City","Montgomery","Region 10","540 E. Park Ave","Miamisburg, OH, 45342-2854","(937) 866-3381","David S. Vail","93.7","A","340","363","93.3","83.6",""
"044404","Middletown City","Butler","Region 13","1 Donham Plz 4th Fl","Middletown, OH, 45042-1932","(513) 423-0781","Marlon J. Styles","90.0","B","307","341","79.8","83.6",""
"044412","Mt Healthy City","Hamilton","Region 13","7615 Harrison Ave","Cincinnati, OH, 45231-3107","(513) 729-0077","Reva C. Cosby","79.3","D","184","232","88.3","83.6",""
"044420","Mount Vernon City","Knox","Region 7","300 Newark Rd","Mount Vernon, OH, 43050-4510","(740) 397-7422","William D. Seder","93.1","A","268","288","91.9","83.6",""
"044438","Napoleon Area City","Henry","Region 1","701 Briarheath Ave Ste 108","Napoleon, OH, 43545-1251","(419) 599-7015","Stephen R. Fogo","92.9","B","143","154","93.6","83.6",""
"044446","Nelsonville-York City","Athens","Region 16","2 Buckeye Dr","Nelsonville, OH, 45764-9591","(740) 753-4441","Charles D. McClelland","90.3","B","84","93","90.8","83.6",""
"044453","Newark City","Licking","Region 11","621 Mount Vernon Rd","Newark, OH, 43055-4615","(740) 670-7005","Douglas C. Ute","84.5","C","288","341","89.0","83.6",""
"044461","New Boston Local","Scioto","Region 15","#1 Glenwood Tiger Trail","New Boston, OH, 45662","(740) 456-4626","Melinda M. Burnside","89.3","B","25","28","87.9","83.6",""
"044479","New Lexington School District","Perry","Region 16","2549 Panther Drive","New Lexington, OH, 43764-0630","(740) 342-4133","Casey H. Coffey","78.5","F","84","107","91.3","83.6",""
"044487","New Philadelphia City","Tuscarawas","Region 12","248 Front Ave SW","New Philadelphia, OH, 44663-2150","(330) 364-0600","David J. Brand","88.9","C","201","226","92.6","83.6",""
"044495","Niles City","Trumbull","Region 5","309 N Rhodes Ave","Niles, OH, 44446-3821","(330) 989-5095","Ann Marie A. Thigpen","79.3","D","161","203","90.0","83.6",""
"044503","North Canton City","Stark","Region 9","525 7th St NE","North Canton, OH, 44720-2012","(330) 497-5600","Jeff S. Wendorf","95.1","A","310","326","94.9","83.6",""
"044511","North College Hill City","Hamilton","Region 13","1731 Goodman Ave","Cincinnati, OH, 45239-4844","(513) 931-8181","Eugene E. Blalock","83.2","D","89","107","81.4","83.6",""
"044529","North Olmsted City","Cuyahoga","Region 3","26669 Butternut Ridge Rd","North Olmsted, OH, 44070-3154","(440) 779-3549","Michael E. Zalar","93.2","A","317","340","93.5","83.6",""
"044537","North Ridgeville City","Lorain","Region 2","5490 Mills Creek Ln","North Ridgeville, OH, 44039-2339","(440) 327-4444","James E. Powell","90.9","B","289","318","94.2","83.6",""
"044545","North Royalton City","Cuyahoga","Region 3","6579 Royalton Rd","North Royalton, OH, 44133-4925","(440) 237-8800","Gregory J. Gurka","95.7","A","377","394","95.1","83.6",""
"044552","Norton City","Summit","Region 8","4128 Cleveland Massillon Rd","Norton, OH, 44203-5633","(330) 825-0863","Dana W. Addis","94.7","A","177","187","93.9","83.6",""
"044560","Norwalk City","Huron","Region 2","134 Benedict Ave","Norwalk, OH, 44857-2349","(419) 668-2779","George E. Fisk","96.2","A","200","208","90.4","83.6",""
"044578","Norwood City","Hamilton","Region 13","2132 Williams Ave","Norwood, OH, 45212-3806","(513) 924-2500","Katherine S. Sabo","82.4","D","122","148","88.9","83.6",""
"044586","Oakwood City","Montgomery","Region 10","20 Rubicon Rd","Dayton, OH, 45409-2239","(937) 297-5332","KYLE B. RAMEY","99.4","A","178","179","96.8","83.6",""
"044594","Oberlin City Schools","Lorain","Region 2","153 N Main St","Oberlin, OH, 44074-1173","(440) 774-1458","David H. Hall","89.2","B","83","93","92.5","83.6",""
"044602","Oregon City","Lucas","Region 1","5721 Seaman St","Oregon, OH, 43616-2631","(419) 693-0661","Hal D. Gregory","93.5","A","260","278","91.5","83.6",""
"044610","Orrville City","Wayne","Region 9","815 N Ella St","Orrville, OH, 44667-1154","(330) 682-4651","James J. Ritchie","91.9","B","102","111","90.7","83.6",""
"044628","Painesville City Local","Lake","Region 4","58 Jefferson St","Painesville, OH, 44077-3114","(440) 392-5060","John T. Shepard","71.8","F","158","220","79.8","83.6",""
"044636","Parma City","Cuyahoga","Region 3","5311 Longwood Avenue","Parma, OH, 44134-0932","(440) 842-5300","Carl H. Hilling","87.7","C","787","897","89.6","83.6",""
"044644","Piqua City","Miami","Region 10","719 E Ash St","Piqua, OH, 45356-2411","(937) 773-4321","Dwayne A. Thompson","87.5","C","244","279","90.8","83.6",""
"044651","Port Clinton City","Ottawa","Region 1","811 Jefferson St","Port Clinton, OH, 43452-2415","(419) 732-2102","Patrick D. Adkins","93.0","A","146","157","91.8","83.6",""
"044669","Portsmouth City","Scioto","Region 15","724 Findlay St","Portsmouth, OH, 45662-4113","(740) 354-4727","Gary S. Dutey","79.6","D","90","113","86.4","83.6",""
"044677","Princeton City","Hamilton","Region 13","3900 Cottingham Dr","Cincinnati, OH, 45241-1616","(513) 864-1000","Thomas S. Tucker","85.3","C","307","360","88.6","83.6",""
"044685","Ravenna City","Portage","Region 8","507 E Main St","Ravenna, OH, 44266-3257","(330) 296-9679","Dennis M. Honkala","85.8","C","188","219","86.4","83.6",""
"044693","Reading Community City","Hamilton","Region 13","1301 Bonnell St","Reading, OH, 45215-3322","(513) 554-1800","Charles R. Lafata","90.5","B","95","105","89.0","83.6",""
"044701","Rocky River City","Cuyahoga","Region 3","1101 Morewood Pkwy","Rocky River, OH, 44116-1439","(440) 333-6000","Michael G. Shoaf","99.1","A","211","213","96.0","83.6",""
"044719","St Bernard-Elmwood Place City","Hamilton","Region 13","105 Washington Ave","Saint Bernard, OH, 45217-1317","(513) 482-7121","Mary Eleanor E. Webb","84.9","C","62","73","83.8","83.6",""
"044727","St Marys City","Auglaize","Region 6","100 W Spring St","Saint Marys, OH, 45885-2312","(419) 394-4312","Howard A. Overman","96.2","A","153","159","93.3","83.6",""
"044735","Salem City","Columbiana","Region 5","1226 E State St","Salem, OH, 44460-2222","(330) 332-0316","Joseph A. Shivers","89.2","B","148","166","90.1","83.6",""
"044743","Sandusky City","Erie","Region 2","407 Decatur St","Sandusky, OH, 44870-2442","(419) 626-6940","Eugene T. Sanders","76.1","F","156","205","82.0","83.6",""
"044750","Shaker Heights City","Cuyahoga","Region 3","15600 Parkland Dr","Shaker Heights, OH, 44120-2529","(216) 295-4000","Gregory C. Hutchings","91.6","B","427","466","94.8","83.6",""
"044768","Sheffield-Sheffield Lake City","Lorain","Region 2","1824 Harris Rd","Sheffield Village, OH, 44054-2628","(440) 949-6181","Michael F. Cook","92.7","B","139","150","93.6","83.6",""
"044776","Shelby City","Richland","Region 7","25 High School Ave","Shelby, OH, 44875-1576","(419) 342-3520","Timothy S. Tarvin","86.0","C","117","136","92.8","83.6",""
"044784","Sidney City","Shelby","Region 6","750 S 4th Ave","Sidney, OH, 45365-1163","(937) 497-2200","John F. Scheu","83.2","D","223","268","90.4","83.6",""
"044792","South Euclid-Lyndhurst City","Cuyahoga","Region 3","5044 Mayfield Rd","Lyndhurst, OH, 44124-2605","(216) 691-2000","Linda N. Reid","81.0","D","265","327","91.2","83.6",""
"044800","South-Western City","Franklin","Region 11","3805 Marlane Dr","Grove City, OH, 43123-9224","(614) 801-3000","William H. Wise","86.5","C","1347","1557","88.0","83.6",""
"044818","Springfield City School District","Clark","Region 10","1500 W Jefferson St","Springfield, OH, 45506-1224","(937) 505-2800","Robert F. Hill","75.4","F","364","483","79.5","83.6","Third Grade Reading Guarantee data may be incomplete due to local reporting error. Contact district for more information."
"044826","Steubenville City","Jefferson","Region 12","PO Box 189","Steubenville, OH, 43952-5189","(740) 283-3767","Melinda M. Young","96.8","A","152","157","82.1","83.6",""
"044834","Stow-Munroe Falls City School District","Summit","Region 8","4350 Allen Rd","Stow, OH, 44224-1032","(330) 689-5445","Thomas P. Bratten","94.3","A","413","438","95.1","83.6",""
"044842","Strongsville City","Cuyahoga","Region 3","18199 Cook Ave","Strongsville, OH, 44136-5216","(440) 572-7000","Cameron M. Ryba","94.9","A","467","492","95.1","83.6",""
"044859","Struthers City","Mahoning","Region 5","99 Euclid Ave","Struthers, OH, 44471-1831","(330) 750-1061","Peter J. Pirone","91.2","B","125","137","89.9","83.6",""
"044867","Sycamore Community City","Hamilton","Region 13","5959 Hagewa Dr","Blue Ash, OH, 45242-6240","(513) 686-1700","Frank A. Forsthoefel","96.0","A","388","404","96.5","83.6",""
"044875","Sylvania Schools","Lucas","Region 1","4747 N Holland Sylvania Rd","Sylvania, OH, 43560-2116","(419) 824-8501","Adam D. Fineske","94.5","A","529","560","95.4","83.6",""
"044883","Tallmadge City","Summit","Region 8","486 East Ave","Tallmadge, OH, 44278-2000","(330) 633-3291","Jeffrey M. Ferguson","96.4","A","189","196","92.9","83.6",""
"044891","Tiffin City","Seneca","Region 7","244 S Monroe St","Tiffin, OH, 44883-2906","(419) 447-2515","Gary A. Barber","96.1","A","196","204","91.2","83.6",""
"044909","Toledo City","Lucas","Region 1","1609 N Summit St","Toledo, OH, 43604-1806","(419) 671-0500","Romules L. Durant","72.1","F","1017","1411","76.3","83.6","Educator and principal data may be incomplete due to local reporting error. Contact district for more information."
"044917","Toronto City","Jefferson","Region 12","1307 Dennis Way","Toronto, OH, 43964-1952","(740) 537-2456","Maureen R. Taggart","87.7","C","57","65","91.6","83.6",""
"044925","Troy City","Miami","Region 10","500 N Market St","Troy, OH, 45373-1418","(937) 332-6700","Eric J. Herman","94.7","A","322","340","92.7","83.6",""
"044933","Upper Arlington City","Franklin","Region 11","1950 N Mallway Dr","Upper Arlington, OH, 43221-4398","(614) 487-5000","Paul W. Imhoff","97.5","A","431","442","96.9","83.6",""
"044941","Urbana City","Champaign","Region 6","711 Wood St","Urbana, OH, 43078-1498","(937) 653-1402","Charles B. Thiel","88.3","C","106","120","90.5","83.6",""
"044958","Vandalia-Butler City","Montgomery","Region 10","500 S Dixie Dr","Vandalia, OH, 45377-2128","(937) 415-6400","Robert M. O'Leary","91.6","B","251","274","93.9","83.6",""
"044966","Van Wert City","Van Wert","Region 1","205 W Crawford St","Van Wert, OH, 45891-1903","(419) 238-0648","Staci A. Kaufman","99.2","A","119","120","92.2","83.6",""
"044974","Wadsworth City","Medina","Region 8","524 Broad St","Wadsworth, OH, 44281-2306","(330) 336-3571","Andrew J. Hill","95.2","A","360","378","94.1","83.6",""
"044982","Wapakoneta City","Auglaize","Region 6","1102 Gardenia Dr","Wapakoneta, OH, 45895-1063","(419) 739-2900","Keith W. Horner","95.3","A","202","212","93.3","83.6",""
"044990","Warren City","Trumbull","Region 5","105 High Street","Warren, OH, 44481","(330) 841-2321","Stephen G. Chiaro","86.0","C","276","321","79.8","83.6",""
"045005","Warrensville Heights City","Cuyahoga","Region 3","4500 Warrensville Center Rd","Warrensville Heights, OH, 44128-4134","(216) 865-4717","Donald J. Jolly","76.9","F","83","108","88.4","83.6",""
"045013","Washington Court House City","Fayette","Region 14","306 Highland Ave","Washington Court Hou, OH, 43160-1819","(740) 335-6620","Thomas S. Bailey","88.4","C","145","164","89.7","83.6",""
"045021","Wellston City","Jackson","Region 16","1 E Broadway St","Wellston, OH, 45692-1225","(740) 384-2152","Karen P. Boch","93.8","A","137","146","90.9","83.6",""
"045039","Wellsville Local","Columbiana","Region 5","929 Center St","Wellsville, OH, 43968-1423","(330) 532-2643","Richard E. Bereschik","86.8","C","46","53","91.7","83.6",""
"045047","Westerville City","Franklin","Region 11","936 Eastwind Dr Ste 200","Westerville, OH, 43081-3319","(614) 797-5700","John R. Kellogg","90.5","B","990","1094","92.9","83.6",""
"045054","West Carrollton City","Montgomery","Region 10","430 E Pease Ave","West Carrollton, OH, 45449-1357","(937) 859-5121","Andrea Townsend","88.9","C","217","244","89.0","83.6",""
"045062","Westlake City","Cuyahoga","Region 3","24525 Hilliard Blvd","Westlake, OH, 44145-3518","(440) 871-7300","Scott E. Goggin","96.9","A","316","326","96.4","83.6",""
"045070","Whitehall City","Franklin","Region 11","625 S Yearling Rd","Whitehall, OH, 43213-2861","(614) 417-5000","Brian D. Hamler","77.0","F","157","204","86.5","83.6",""
"045088","Wickliffe City","Lake","Region 4","2221 Rockefeller Rd","Wickliffe, OH, 44092-2020","(440) 943-6900","Joseph G. Spiccia","89.4","B","110","123","93.5","83.6",""
"045096","Willard City","Huron","Region 7","110 S Myrtle Ave","Willard, OH, 44890-1425","(419) 935-1541","Jeffery R. Ritz","91.2","B","104","114","90.4","83.6",""
"045104","Willoughby-Eastlake City","Lake","Region 4","37047 Ridge Rd","Willoughby, OH, 44094-4130","(440) 946-5000","Stephen L. Thompson","92.9","B","637","686","92.2","83.6",""
"045112","Wilmington City","Clinton","Region 14","341 S Nelson Ave","Wilmington, OH, 45177-2034","(937) 382-1641","Melinda A. Mccarty-Stewart","85.9","C","177","206","91.0","83.6",""
"045120","Wooster City","Wayne","Region 9","144 N Market St","Wooster, OH, 44691-4810","(330) 264-0869","Michael L. Tefs","94.6","A","280","296","91.9","83.6",""
"045138","Worthington City","Franklin","Region 11","200 E Wilson Bridge Rd","Worthington, OH, 43085-2332","(614) 450-6000","Trent H. Bowers","94.9","A","686","723","94.9","83.6",""
"045146","Wyoming City","Hamilton","Region 13","420 Springfield Pike","Wyoming, OH, 45215-4298","(513) 206-7000","Susan K. Lang","98.8","A","160","162","96.4","83.6",""
"045153","Xenia Community City","Greene","Region 10","819 Colorado Dr","Xenia, OH, 45385-4859","(937) 376-2961","Gabriel E. Lofton","84.9","C","282","332","89.5","83.6",""
"045161","Youngstown City","Mahoning","Region 5","PO Box 550","Youngstown, OH, 44501-0550","(330) 744-6915","Joseph S. Meranto","73.8","F","242","328","79.1","83.6",""
"045179","Zanesville City","Muskingum","Region 12","956 Moxahala Ave","Zanesville, OH, 43701-5533","(740) 454-9751","Charles D. Baker","82.8","D","169","204","84.6","83.6",""
"045187","Ada Exempted Village","Hardin","Region 6","725 W North Ave","Ada, OH, 45810-1176","(419) 634-6421","Meri C. Skilliter","91.4","B","64","70","94.8","83.6",""
"045195","Amherst Exempted Village","Lorain","Region 2","185 Forest St","Amherst, OH, 44001-1605","(440) 988-4406","Steven A. Sayers","91.9","B","307","334","93.8","83.6",""
"045203","Barnesville Exempted Village","Belmont","Region 12","210 W Church St","Barnesville, OH, 43713-1069","(740) 425-3615","Angela J. Hannahs","94.8","A","91","96","93.7","83.6",""
"045211","Bluffton Exempted Village","Allen","Region 6","102 S Jackson St","Bluffton, OH, 45817-1218","(419) 358-5901","Gregory J. Denecker","96.3","A","78","81","96.4","83.6",""
"045229","Bradford Exempted Village","Miami","Region 10","760 Railroad Ave","Bradford, OH, 45308-8605","(937) 448-2770","Joseph E. Hurst","100.0","A","43","43","93.4","83.6",""
"045237","Bridgeport Exempted Village","Belmont","Region 12","55781 National Rd","Bridgeport, OH, 43912-1528","(740) 635-1713","Zachary E. Shutler","92.6","B","63","68","91.4","83.6",""
"045245","Harrison Hills City","Harrison","Region 12","730 Peppard Ave","Cadiz, OH, 43907-1067","(740) 942-7800","Dana L. Snider","87.1","C","122","140","92.7","83.6",""
"045252","Caldwell Exempted Village","Noble","Region 12","516 Fairground St","Caldwell, OH, 43724-1175","(740) 732-5637","Kacey R. Cottrill","94.5","A","52","55","92.4","83.6",""
"045260","Carey Exempted Village Schools","Wyandot","Region 7","2016 Blue Devil Drive","Carey, OH, 43316-1282","(419) 396-7922","Michael A. Wank","86.6","C","58","67","94.5","83.6",""
"045278","Carrollton Exempted Village","Carroll","Region 12","252 3rd St NE","Carrollton, OH, 44615-1236","(330) 627-2181","David P. Quattrochi","92.5","B","185","200","92.0","83.6",""
"045286","Chagrin Falls Exempted Village","Cuyahoga","Region 3","400 E Washington St","Chagrin Falls, OH, 44022-2924","(440) 247-5500","Robert W. Hunt","98.8","A","167","169","97.0","83.6",""
"045294","Chesapeake Union Exempted Village","Lawrence","Region 15","10183 County Road 1","Chesapeake, OH, 45619-7032","(740) 867-3135","Jerry L. McConnell","97.4","A","113","116","92.8","83.6",""
"045302","Clyde-Green Springs Exempted Village","Sandusky","Region 1","106 S Main St","Clyde, OH, 43410-1633","(419) 547-0588","Dennis M. Haft","97.5","A","155","159","92.2","83.6",""
"045310","Coldwater Exempted Village","Mercer","Region 6","310 N 2nd St","Coldwater, OH, 45828-1242","(419) 678-2611","Jason E. Wood","100.0","A","101","101","95.0","83.6",""
"045328","Columbiana Exempted Village","Columbiana","Region 5","700 Columbiana Waterford Rd","Columbiana, OH, 44408-9499","(330) 482-5353","Donald J. Mook","97.4","A","76","78","94.7","83.6",""
"045336","Covington Exempted Village","Miami","Region 10","807 Chestnut St","Covington, OH, 45318-1760","(937) 473-2249","CHARLES E. GOODING","100.0","A","62","62","93.3","83.6",""
"045344","Crestline Exempted Village","Crawford","Region 7","401 Heiser Ct","Crestline, OH, 44827-1360","(419) 683-3647","Noreen L. Mullens","91.5","B","43","47","89.1","83.6",""
"045351","Crooksville Exempted Village","Perry","Region 16","4065 Ceramic Way","Crooksville, OH, 43731-1013","(740) 982-7040","Matthew L. Sheridan","89.1","B","82","92","90.1","83.6",""
"045369","Fairport Harbor Exempted Village","Lake","Region 4","329 Vine St","Fairport Harbor, OH, 44077-5741","(440) 354-5400","Domenic A. Paolo","86.4","C","38","44","96.7","83.6",""
"045377","Georgetown Exempted Village","Brown","Region 14","1043 Mount Orab Pike","Georgetown, OH, 45121-8440","(937) 378-3565","Christopher J. Burrows","94.9","A","75","79","92.3","83.6",""
"045385","Gibsonburg Exempted Village","Sandusky","Region 1","301 S Sunset Ave","Gibsonburg, OH, 43431-1264","(419) 637-2479","Timothy W. Murray","97.6","A","81","83","94.6","83.6",""
"045393","Granville Exempted Village","Licking","Region 11","PO Box 417","Granville, OH, 43023-0417","(740) 587-8101","Jeffrey R. Brown","96.6","A","199","206","96.8","83.6",""
"045401","Greenfield Exempted Village","Highland","Region 14","200 N 5th St","Greenfield, OH, 45123-1373","(937) 981-2152","James J. Wills","77.7","F","115","148","92.3","83.6",""
"045419","Hicksville Exempted Village","Defiance","Region 1","958 E High St","Hicksville, OH, 43526-1258","(419) 542-7665","Keith L. Countryman","91.2","B","52","57","94.1","83.6",""
"045427","Hubbard Exempted Village","Trumbull","Region 5","108 Orchard Ave","Hubbard, OH, 44425-1724","(330) 534-1921","Raymond W. Soloman","96.1","A","173","180","93.4","83.6",""
"045435","Indian Hill Exempted Village","Hamilton","Region 13","6855 Drake Rd","Cincinnati, OH, 45243-2737","(513) 272-4500","Mark T. Miles","96.8","A","150","155","97.2","83.6",""
"045443","Leetonia Exempted Village","Columbiana","Region 5","450 Walnut St","Leetonia, OH, 44431-1075","(330) 427-6594","Robert A. Mehno","93.3","A","56","60","93.0","83.6",""
"045450","Lisbon Exempted Village","Columbiana","Region 5","317 N Market St","Lisbon, OH, 44432-1145","(330) 424-7714","Joseph E. Siefke","90.8","B","79","87","93.2","83.6",""
"045468","Loudonville-Perrysville Exempted Village","Ashland","Region 7","210 E Main St","Loudonville, OH, 44842-1245","(419) 994-3912","Catherine M. Puster","93.0","A","80","86","94.3","83.6",""
"045476","Marysville Exempted Village","Union","Region 11","1000 Edgewood Dr","Marysville, OH, 43040-2105","(937) 644-8105","Diane M. Mankins","91.9","B","384","418","94.0","83.6",""
"045484","Mechanicsburg Exempted Village","Champaign","Region 6","60 High St","Mechanicsburg, OH, 43044-1071","(937) 834-2453","Danielle M. Prohaska","98.5","A","64","65","94.5","83.6",""
"045492","Mentor Exempted Village","Lake","Region 4","6451 Center St","Mentor, OH, 44060-4109","(440) 255-4444","William M. Porter","93.6","A","625","668","93.9","83.6",""
"045500","Milford Exempted Village","Clermont","Region 13","777 Garfield Ave","Milford, OH, 45150-1607","(513) 831-1314","Nancy C. House","96.5","A","473","490","94.3","83.6",""
"045518","Milton-Union Exempted Village","Miami","Region 10","7610 Milton Potsdam Rd","West Milton, OH, 45383-9602","(937) 884-7910","Brad M. Ritchey","97.2","A","105","108","94.0","83.6",""
"045526","Montpelier Exempted Village","Williams","Region 1","PO Box 193","Montpelier, OH, 43543-0193","(419) 485-3676","Jamison J. Grime","88.1","C","74","84","93.5","83.6",""
"045534","Mount Gilead Exempted Village","Morrow","Region 7","145 N Cherry St","Mount Gilead, OH, 43338-1266","(419) 946-1646","Jeffrey D. Thompson","97.5","A","78","80","94.1","83.6",""
"045542","Newcomerstown Exempted Village","Tuscarawas","Region 12","702 S River St","Newcomerstown, OH, 43832-1450","(740) 498-8373","Jeffery S. Staggs","90.8","B","69","76","90.6","83.6",""
"045559","New Richmond Exempted Village","Clermont","Region 13","212 Market St Fl 3RD","New Richmond, OH, 45157-1373","(513) 553-2616","Adam C. Bird","96.1","A","173","180","92.7","83.6",""
"045567","Newton Falls Exempted Village","Trumbull","Region 5","909 1/2 Milton Blvd","Newton Falls, OH, 44444-9707","(330) 872-5445","Paul J. Woodard","93.3","A","83","89","92.5","83.6",""
"045575","Paulding Exempted Village","Paulding","Region 1","405 N Water St","Paulding, OH, 45879-1251","(419) 399-4656","Kenneth D. Amstutz","91.3","B","84","92","92.9","83.6",""
"045583","Perrysburg Exempted Village","Wood","Region 1","140 E Indiana Ave","Perrysburg, OH, 43551-2261","(419) 874-9131","Thomas L. Hosler","96.2","A","356","370","96.6","83.6",""
"045591","Rittman Exempted Village","Wayne","Region 9","100 Saurer St","Rittman, OH, 44270-1259","(330) 927-7400","James J. Ritchie","95.1","A","58","61","93.3","83.6",""
"045609","Rossford Exempted Village","Wood","Region 1","401 Glenwood Rd","Rossford, OH, 43460-1317","(419) 666-2010","Daniel Creps","89.7","B","105","117","93.3","83.6","Gifted data may be incomplete due to local reporting error. Contact district for more information."
"045617","Tipp City Exempted Village","Miami","Region 10","90 S Tippecanoe Dr","Tipp City, OH, 45371-1139","(937) 667-8444","Gretta H. Kumpf","97.1","A","200","206","95.6","83.6",""
"045625","Upper Sandusky Exempted Village","Wyandot","Region 7","800 N Sandusky Ave","Upper Sandusky, OH, 43351-1032","(419) 294-2307","Laurie C. Vent","94.4","A","136","144","93.8","83.6",""
"045633","Versailles Exempted Village","Darke","Region 10","PO Box 313","Versailles, OH, 45380-0313","(937) 526-4773","Aaron M. Moran","100.0","A","107","107","96.8","83.6",""
"045641","Wauseon Exempted Village","Fulton","Region 1","930 E Oak St","Wauseon, OH, 43567-1350","(419) 335-6616","Larry C. Brown","95.6","A","152","159","92.2","83.6",""
"045658","Wellington Exempted Village","Lorain","Region 2","305 Union St","Wellington, OH, 44090-1072","(440) 647-4286","Edward J. Weber","88.4","C","99","112","95.2","83.6",""
"045666","Windham Exempted Village","Portage","Region 8","9530 Bauer Ave","Windham, OH, 44288-1004","(330) 326-2711","Gregory C. Isler","86.3","C","44","51","90.9","83.6",""
"045674","Yellow Springs Exempted Village","Greene","Region 10","201 S Walnut St","Yellow Springs, OH, 45387-1805","(937) 767-7381","Mario Basora","100.0","A","44","44","95.9","83.6",""
"045757","Allen East Local","Allen","Region 6","9105 Harding Hwy","Harrod, OH, 45850","(419) 648-3333","Mel L. Rentschler","93.8","A","90","96","94.9","83.6",""
"045765","Bath Local","Allen","Region 6","2650 Bible Rd","Lima, OH, 45801-2246","(419) 221-0807","Richard D. Dackin","91.1","B","123","135","90.8","83.6",""
"045773","Elida Local","Allen","Region 6","4380 Sunnydale St","Elida, OH, 45807-9593","(419) 331-4155","Joel W. Mengerink","89.2","B","166","186","90.4","83.6",""
"045781","Perry Local","Allen","Region 6","2770 E Breese Rd","Lima, OH, 45806-9743","(419) 221-2770","Alison R. Van Gorder","85.5","C","47","55","88.3","83.6",""
"045799","Shawnee Local","Allen","Region 6","3255 Zurmehly Rd","Lima, OH, 45806-1434","(419) 998-8031","James D. Kanable","93.5","A","158","169","92.8","83.6",""
"045807","Spencerville Local","Allen","Region 6","2500 Wisher Dr","Spencerville, OH, 45887-1293","(419) 647-4111","Dennis A. Fuge","91.5","B","54","59","94.3","83.6",""
"045823","Hillsdale Local","Ashland","Region 7","485 Township Road 1902","Jeromesville, OH, 44840-9754","(419) 368-8231","Steven E. Dickerson","95.7","A","67","70","95.5","83.6",""
"045831","Mapleton Local","Ashland","Region 7","635 County Road 801","Ashland, OH, 44805-9571","(419) 945-2188","Rodney G. Hopton","90.8","B","69","76","93.4","83.6",""
"045856","Buckeye Local","Ashtabula","Region 5","3436 Edgewood Dr","Ashtabula, OH, 44004-5967","(440) 998-4411","Patrick E. Colucci","88.5","C","146","165","91.8","83.6",""
"045864","Grand Valley Local","Ashtabula","Region 5","111 Grand Valley Ave West","Orwell, OH, 44076-9420","(440) 437-6260","William R. Nye","90.3","B","84","93","93.7","83.6",""
"045872","Jefferson Area Local","Ashtabula","Region 5","121 S Poplar St","Jefferson, OH, 44047-1328","(440) 576-9180","John C. Montanaro","91.7","B","122","133","93.7","83.6",""
"045880","Pymatuning Valley Local","Ashtabula","Region 5","PO Box 1180","Andover, OH, 44003-1180","(440) 293-6488","Michael A. Candela","90.8","B","89","98","91.4","83.6",""
"045906","Alexander Local","Athens","Region 16","6091 Ayers Rd","Albany, OH, 45710-9492","(740) 698-8831","Lindy L. Douglas","96.5","A","110","114","93.1","83.6",""
"045914","Federal Hocking Local","Athens","Region 16","PO Box 117","Stewart, OH, 45778-0117","(740) 662-6691","George H. Wood","91.4","B","64","70","87.8","83.6",""
"045922","Trimble Local","Athens","Region 16","1 Tomcat Dr","Glouster, OH, 45732-9335","(740) 767-4444","Scott L. Christman","91.4","B","53","58","88.3","83.6",""
"045948","Minster Local","Auglaize","Region 6","50 E 7th St","Minster, OH, 45865-1095","(419) 628-3397","Brenda A. Boeke","97.0","A","65","67","96.4","83.6",""
"045955","New Bremen Local","Auglaize","Region 6","901 E Monroe St","New Bremen, OH, 45869-9685","(419) 629-8606","Jason A. Schrader","96.9","A","63","65","96.4","83.6",""
"045963","New Knoxville Local","Auglaize","Region 6","345 S Main St","New Knoxville, OH, 45871-0476","(419) 753-2431","Kimberly S. Waterman","100.0","A","32","32","95.7","83.6",""
"045971","Waynesfield-Goshen Local","Auglaize","Region 6","500 N Westminster St","Waynesfield, OH, 45896-9448","(419) 568-9100","J. Chris Pfister","96.2","A","51","53","96.2","83.6",""
"045997","St Clairsville-Richland City","Belmont","Region 12","108 Woodrow Ave","Saint Clairsville, OH, 43950-1567","(740) 695-1624","Walter E. Skaggs","97.2","A","138","142","93.9","83.6",""
"046003","Shadyside Local","Belmont","Region 12","3890 Lincoln Ave","Shadyside, OH, 43947-1319","(740) 676-3235","John M. Haswell","92.4","B","61","66","95.5","83.6",""
"046011","Union Local","Belmont","Region 12","66779 Belmont Morristown Rd","Belmont, OH, 43718-9568","(740) 782-1978","Robert B. Porter","87.0","C","114","131","93.5","83.6",""
"046037","Eastern Local","Brown","Region 14","11479 US Highway 62","Winchester, OH, 45697-9690","(937) 695-1399","Michele R. Filon","91.2","B","83","91","94.1","83.6",""
"046045","Fayetteville-Perry Local","Brown","Region 14","551 S Apple St","Fayetteville, OH, 45118-8461","(513) 875-2423","James J. Brady","95.1","A","58","61","93.8","83.6",""
"046060","Western Brown Local","Brown","Region 14","524 W Main St","Mount Orab, OH, 45154-8262","(937) 444-2044","Raegan L. White","89.7","B","217","242","93.0","83.6",""
"046078","Ripley-Union-Lewis-Huntington Local","Brown","Region 14","PO Box 85","Ripley, OH, 45167-0085","(937) 392-4396","James L. Wilkins II","89.7","B","78","87","91.9","83.6",""
"046094","Edgewood City","Butler","Region 13","3440 Busenbark Rd","Trenton, OH, 45067-7612","(513) 863-4692","Simon R. Fussnecker Jr","90.7","B","245","270","92.6","83.6",""
"046102","Fairfield City","Butler","Region 13","4641 Bach Ln","Fairfield, OH, 45014-1900","(513) 829-6300","Billy J. Smith","92.8","B","725","781","90.6","83.6",""
"046110","Lakota Local","Butler","Region 13","5572 Princeton Rd","Liberty Township, OH, 45011-9726","(513) 874-5505","Matthew J. Miller","94.0","A","1195","1271","95.3","83.6",""
"046128","Madison Local","Butler","Region 13","1324 Middletown Eaton Rd","Middletown, OH, 45042-1525","(513) 420-4750","Charles C. Philpot","94.2","A","113","120","93.8","83.6",""
"046136","New Miami Local","Butler","Region 13","600 Seven Mile Ave","Hamilton, OH, 45011-5748","(513) 863-0833","Rhonda J. Parker","75.4","F","46","61","90.0","83.6",""
"046144","Ross Local","Butler","Region 13","3371 Hamilton Cleves Rd","Hamilton, OH, 45013-9535","(513) 863-1253","Scott M. Gates","98.1","A","211","215","94.6","83.6",""
"046151","Talawanda City","Butler","Region 13","131 W Chestnut St","Oxford, OH, 45056-2619","(513) 273-3333","Kelly L. Spivey","91.2","B","228","250","93.0","83.6",""
"046177","Brown Local","Carroll","Region 12","3242 Coral Rd NW","Malvern, OH, 44644-9467","(330) 863-1170","Scott M. Bowling","95.8","A","46","48","92.3","83.6",""
"046193","Graham Local","Champaign","Region 6","7790 US Highway 36","Saint Paris, OH, 43072-9496","(937) 663-4123","Kirk Koennecke","92.8","B","141","152","93.9","83.6",""
"046201","Triad Local","Champaign","Region 6","7920 Brush Lake Rd","North Lewisburg, OH, 43060-9617","(937) 826-4961","Christopher M. Piper","91.9","B","57","62","95.5","83.6",""
"046219","West Liberty-Salem Local","Champaign","Region 6","7208 US Highway 68 N","West Liberty, OH, 43357-9663","(937) 465-1075","Kraig E. Hissong","100.0","A","82","82","95.4","83.6",""
"046235","Greenon Local","Clark","Region 10","500 Enon Xenia Pike","Enon, OH, 45323-1759","(937) 864-1202","Bradley K. Silvus","93.4","A","113","121","94.9","83.6",""
"046243","Tecumseh Local","Clark","Region 10","9760 W National Rd","New Carlisle, OH, 45344-9290","(937) 845-3576","Norm W. Glismann","88.6","C","225","254","90.3","83.6",""
"046250","Northeastern Local","Clark","Region 10","1414 Bowman Rd","Springfield, OH, 45502-8826","(937) 325-7615","John P. Kronour","95.5","A","275","288","93.1","83.6",""
"046268","Northwestern Local","Clark","Region 10","5610 Troy Rd","Springfield, OH, 45502-9032","(937) 964-1318","Jesse D. Steiner","95.3","A","141","148","94.8","83.6",""
"046276","Southeastern Local","Clark","Region 10","226 Clifton Rd","South Charleston, OH, 45368-9602","(888) 627-6745","David M. Shea","92.6","B","50","54","94.9","83.6",""
"046284","Clark-Shawnee Local","Clark","Region 10","3680 Selma Rd","Springfield, OH, 45502-6310","(937) 328-5378","Gregg E. Morris","97.4","A","187","192","92.1","83.6",""
"046300","Batavia Local","Clermont","Region 13","800 Bauer Ave","Batavia, OH, 45103-1990","(513) 732-2343","Keith D. Millard","94.9","A","129","136","93.4","83.6",""
"046318","Bethel-Tate Local","Clermont","Region 13","675 West Plane Street","Bethel, OH, 45106","(513) 734-2271","Melissa A. Kircher","94.1","A","95","101","94.2","83.6",""
"046326","Clermont Northeastern Local","Clermont","Region 13","2792 Us Highway 50","Batavia, OH, 45103-8532","(513) 625-5478","Joseph M. Brandt","89.4","B","118","132","93.8","83.6",""
"046334","Felicity-Franklin Local","Clermont","Region 13","PO Box 619","Felicity, OH, 45120-0619","(513) 362-5348","David R. Gibson","88.9","C","72","81","91.6","83.6",""
"046342","Goshen Local","Clermont","Region 13","6694 Goshen Rd","Goshen, OH, 45122-9273","(513) 722-2222","Darrell Edwards","97.6","A","166","170","91.5","83.6",""
"046359","West Clermont Local","Clermont","Region 13","4350 Aicholtz Rd","Cincinnati, OH, 45245-1505","(513) 943-5000","Keith Kline","92.7","B","569","614","92.9","83.6",""
"046367","Williamsburg Local","Clermont","Region 13","549A W Main St","Williamsburg, OH, 45176-1110","(513) 724-3077","Matthew D. Earley","93.2","A","82","88","93.2","83.6",""
"046383","Blanchester Local","Clinton","Region 14","951 Cherry St.","Blanchester, OH, 45107-7846","(937) 783-3523","Dean D. Lynch","94.4","A","134","142","92.0","83.6",""
"046391","Clinton-Massie Local","Clinton","Region 14","2556 Lebanon Rd","Clarksville, OH, 45113-8201","(937) 289-2471","Matthew P. Baker","92.2","B","119","129","95.4","83.6",""
"046409","East Clinton Local","Clinton","Region 14","97 Astro Way","Sabina, OH, 45169-9521","(937) 584-2461","Eric B. Magee","92.9","B","104","112","91.3","83.6",""
"046425","Beaver Local","Columbiana","Region 5","46088 Bell School Rd","East Liverpool, OH, 43920-8774","(330) 385-6831","Eric N. Lowe","87.3","C","131","150","93.2","83.6",""
"046433","Crestview Local","Columbiana","Region 5","44100 Crestview Rd Ste A","Columbiana, OH, 44408-9660","(330) 482-5526","Matthew T. Manley","98.9","A","94","95","94.5","83.6",""
"046441","Southern Local","Columbiana","Region 5","38095 State Route 39","Salineville, OH, 43945-9726","(330) 679-2343","John S. Wilson","92.2","B","59","64","91.8","83.6",""
"046458","United Local","Columbiana","Region 5","8143 State Route 9","Hanoverton, OH, 44423-8618","(330) 223-1521","Lance B. Hostetler","95.4","A","104","109","94.2","83.6",""
"046474","Ridgewood Local","Coshocton","Region 12","301 S Oak St","West Lafayette, OH, 43845-1339","(740) 545-5312","Michael A. Masloski","90.8","B","109","120","92.5","83.6",""
"046482","River View Local","Coshocton","Region 12","26496 State Route 60","Warsaw, OH, 43844-9714","(740) 824-3521","Harry D. Summers","95.0","A","152","160","90.5","83.6",""
"046508","Buckeye Central Local","Crawford","Region 7","938 S Kibler St","New Washington, OH, 44854-9521","(419) 492-2864","Mark A. Robinson","96.6","A","57","59","94.4","83.6",""
"046516","Colonel Crawford Local","Crawford","Region 7","2303 State Route 602","North Robinson, OH, 44827-9711","(419) 562-6755","William T. Martin","98.7","A","75","76","94.5","83.6",""
"046524","Wynford Local","Crawford","Region 7","3288 Holmes Center Rd","Bucyrus, OH, 44820-9463","(419) 562-7828","Frederick M. Fox","100.0","A","69","69","94.2","83.6",""
"046557","Cuyahoga Heights Local","Cuyahoga","Region 3","4820 E 71st St","Cuyahoga Heights, OH, 44125-1043","(216) 429-5700","Thomas Evans","97.1","A","68","70","93.8","83.6",""
"046565","Independence Local","Cuyahoga","Region 3","7733 Stone Rd","Independence, OH, 44131-4813","(216) 642-5850","Benjamin J. Hegedish","97.5","A","77","79","95.2","83.6",""
"046573","Olmsted Falls City","Cuyahoga","Region 3","PO Box 38010","Olmsted Falls, OH, 44138-0010","(440) 427-6000","James L. Lloyd","95.7","A","287","300","94.6","83.6",""
"046581","Orange City","Cuyahoga","Region 3","32000 Chagrin Blvd","Cleveland, OH, 44124-5922","(216) 831-8600","Edwin S. Holland","96.9","A","157","162","96.9","83.6",""
"046599","Richmond Heights Local","Cuyahoga","Region 3","447 Richmond Rd","Richmond Heights, OH, 44143-1429","(216) 692-8485","Renee T. Willis","70.7","F","58","82","85.5","83.6",""
"046607","Solon City","Cuyahoga","Region 3","33800 Inwood Dr","Solon, OH, 44139-4133","(440) 248-1600","Joseph V. Regano","96.8","A","448","463","96.7","83.6",""
"046623","Ansonia Local","Darke","Region 10","PO Box 279","Ansonia, OH, 45303-0279","(937) 337-4000","James R. Atchley","98.4","A","60","61","94.8","83.6",""
"046631","Arcanum-Butler Local","Darke","Region 10","2011 Trojan Ave","Arcanum, OH, 45304-1381","(937) 692-5174","Johnathan N. Stephens","98.0","A","98","100","94.5","83.6",""
"046649","Franklin Monroe Local","Darke","Region 10","PO Box 78","Pitsburg, OH, 45358-0078","(937) 947-1212","Jeffrey M. Patrick","98.6","A","70","71","95.0","83.6",""
"046672","Mississinawa Valley Local","Darke","Region 10","1469 State Road 47 E","Union City, OH, 45390-8628","(937) 968-5656","Douglas E. Dunham","93.8","A","45","48","92.7","83.6",""
"046680","Tri-Village Local","Darke","Region 10","315 S Main St","New Madison, OH, 45346-9797","(937) 996-6261","Joshua M. Sagester","95.0","A","57","60","94.1","83.6",""
"046706","Ayersville Local","Defiance","Region 1","28046 Watson Rd","Defiance, OH, 43512-8851","(419) 395-1111","Donald F. Diglia","95.9","A","71","74","94.4","83.6",""
"046714","Central Local","Defiance","Region 1","6289 Us Highway 127","Sherwood, OH, 43556-9735","(419) 658-2808","Vicki L. Brunn","94.7","A","89","94","94.8","83.6",""
"046722","Northeastern Local","Defiance","Region 1","5921 Domersville Rd","Defiance, OH, 43512-9121","(419) 497-3461","James C. Roach","98.8","A","82","83","94.8","83.6",""
"046748","Big Walnut Local","Delaware","Region 11","110 Tippett Ct","Sunbury, OH, 43074-9334","(740) 965-3010","Angela S. Pollock","95.0","A","211","222","95.8","83.6",""
"046755","Buckeye Valley Local","Delaware","Region 11","679 Coover Rd","Delaware, OH, 43015-9562","(740) 369-8735","Andrew J. Miller","97.7","A","169","173","95.9","83.6",""
"046763","Olentangy Local","Delaware","Region 11","7840 Graphics Way","Lewis Center, OH, 43035-9078","(740) 657-4050","Mark T. Raiff","98.3","A","1243","1265","96.0","83.6",""
"046789","Edison Local (formerly Berlin-Milan)","Erie","Region 2","140 Main St S","Milan, OH, 44846-9735","(419) 499-3000","Thomas C. Roth","94.9","A","112","118","94.5","83.6",""
"046805","Margaretta Local","Erie","Region 2","305 S Washington St","Castalia, OH, 44824-9263","(419) 684-5322","Dennis R. Mock","94.0","A","78","83","92.8","83.6",""
"046813","Perkins Local","Erie","Region 2","3714 Campbell St Ste B","Sandusky, OH, 44870-7232","(419) 625-0484","Jodie Hausmann","95.2","A","178","187","93.8","83.6",""
"046821","Vermilion Local","Erie","Region 2","1250 Sanford St","Vermilion, OH, 44089-1577","(440) 204-1700","Philip M. Pempin","93.0","A","173","186","91.9","83.6",""
"046847","Amanda-Clearcreek Local","Fairfield","Region 11","328 E Main St","Amanda, OH, 43102-9330","(740) 969-7250","James B. Dick","92.5","B","124","134","94.1","83.6",""
"046854","Berne Union Local","Fairfield","Region 11","506 N Main St","Sugar Grove, OH, 43155-0187","(740) 746-8341","Richard R. Spindler","97.3","A","71","73","92.7","83.6",""
"046862","Bloom-Carroll Local","Fairfield","Region 11","5240 Plum Rd","Carroll, OH, 43112-9716","(614) 837-6560","Shawn P. Haughn","96.0","A","144","150","96.1","83.6",""
"046870","Fairfield Union Local","Fairfield","Region 11","6417 Cincinnati Zanesville Rd NE","Lancaster, OH, 43130-9323","(740) 536-7384","Jon C. Belville","92.6","B","163","176","94.5","83.6",""
"046888","Liberty Union-Thurston Local","Fairfield","Region 11","1108 S Main St","Baltimore, OH, 43105-9700","(740) 862-4171","Todd S. Osborn","95.1","A","98","103","94.6","83.6",""
"046896","Pickerington Local","Fairfield","Region 11","90 East St.","Pickerington, OH, 43147-1061","(614) 833-2110","Chris M. Briggs","98.1","A","816","832","94.3","83.6",""
"046904","Walnut Township Local","Fairfield","Region 11","11850 Lancaster St","Millersport, OH, 43046","(740) 467-2802","Randall J. Cotner","92.7","B","38","41","93.3","83.6",""
"046920","Miami Trace Local","Fayette","Region 14","3818 State Route 41 NW","Washington Court House, OH, 43160-9184","(740) 335-3010","David L. Lewis","93.9","A","155","165","91.7","83.6",""
"046946","Canal Winchester Local","Franklin","Region 11","100 Washington St","Canal Winchester, OH, 43110-1224","(614) 837-4533","James Sotlar","96.9","A","279","288","93.7","83.6",""
"046953","Hamilton Local","Franklin","Region 11","775 Rathmell Rd","Columbus, OH, 43207-4737","(614) 491-8044","Mark M. Tyler","95.4","A","206","216","88.2","83.6",""
"046961","Gahanna-Jefferson City","Franklin","Region 11","160 S Hamilton Rd","Gahanna, OH, 43230-2919","(614) 471-7065","Stephen G. Barrett","93.5","A","536","573","95.4","83.6",""
"046979","Groveport Madison Local","Franklin","Region 11","4400 Marketing Pl Ste B","Groveport, OH, 43125-2009","(614) 492-2520","Bruce A. Hoover","80.3","D","290","361","84.8","83.6",""
"046995","New Albany-Plain Local","Franklin","Region 11","55 N High St","New Albany, OH, 43054-7099","(614) 855-2040","Michael L. Sawyers","97.4","A","305","313","96.8","83.6",""
"047001","Reynoldsburg City","Franklin","Region 11","7244 E Main St","Reynoldsburg, OH, 43068-2014","(614) 501-1020","Melvin Brown","92.4","B","402","435","88.0","83.6",""
"047019","Hilliard City","Franklin","Region 11","2140 Atlas St","Columbus, OH, 43228-9647","(614) 921-7000","John C. Marschhausen","95.3","A","1146","1202","95.1","83.6",""
"047027","Dublin City","Franklin","Region 11","7030 Coffman Rd","Dublin, OH, 43017-1068","(614) 764-5913","Todd F. Hoadley","97.5","A","1191","1221","95.4","83.6",""
"047043","Archbold-Area Local","Fulton","Region 1","600 Lafayette St","Archbold, OH, 43502-1656","(419) 446-2728","Aaron M. Rex","96.8","A","92","95","94.7","83.6",""
"047050","Evergreen Local","Fulton","Region 1","14544 County Road 6","Metamora, OH, 43540-9741","(419) 644-3521","James A. Wyse","96.7","A","88","91","94.6","83.6",""
"047068","Fayette Local","Fulton","Region 1","400 E Gamble Rd","Fayette, OH, 43521-9462","","Erik M. Belcher","97.3","A","36","37","94.4","83.6",""
"047076","Pettisville Local","Fulton","Region 1","Box 53001","Pettisville, OH, 43553-0001","(419) 446-2705","Stephen S. Switzer","97.6","A","41","42","96.3","83.6",""
"047084","Pike-Delta-York Local","Fulton","Region 1","504 Fernwood St","Delta, OH, 43515-1204","(419) 822-3391","Ted M. Haselman","88.9","C","80","90","93.6","83.6",""
"047092","Swanton Local","Fulton","Region 1","108 N Main St","Swanton, OH, 43558-1032","(419) 826-7085","Christopher M. Lake","88.6","C","109","123","93.6","83.6",""
"047167","Berkshire Local","Geauga","Region 4","PO Box 364","Burton, OH, 44021-0364","(440) 834-3380","John R. Stoddard","89.4","B","101","113","94.5","83.6",""
"047175","Cardinal Local","Geauga","Region 4","PO Box 188","Middlefield, OH, 44062-0188","(440) 632-0261","Scott J. Hunt","94.3","A","83","88","94.2","83.6",""
"047183","Chardon Local","Geauga","Region 4","428 North St","Chardon, OH, 44024-1036","(440) 285-4052","Michael P. Hanlon","92.9","B","223","240","94.9","83.6","Achievement, Progress and Gap Closing data may be incomplete due to local reporting error. Contact district for more information."
"047191","Kenston Local","Geauga","Region 4","17419 Snyder Rd","Chagrin Falls, OH, 44023-2730","(440) 543-9677","Nancy R. Santilli","96.4","A","241","250","96.5","83.6",""
"047217","Newbury Local","Geauga","Region 4","14775 Auburn Rd","Newbury, OH, 44065-9702","(440) 564-5501","Michelle R. Mrakovich","87.8","C","43","49","96.9","83.6",""
"047225","West Geauga Local","Geauga","Region 4","8615 Cedar Rd","Chesterland, OH, 44026-3519","(440) 729-5900","Richard A. Markwardt","93.1","A","189","203","96.4","83.6",""
"047241","Beavercreek City","Greene","Region 10","3040 Kemp Rd","Beavercreek, OH, 45431-2644","(937) 426-1522","Paul M. Otten","96.3","A","572","594","95.7","83.6",""
"047258","Cedar Cliff Local","Greene","Region 10","248 N Main St","Cedarville, OH, 45314-8541","(937) 766-6000","Chad D. Mason","96.1","A","49","51","96.4","83.6",""
"047266","Greeneview Local","Greene","Region 10","4 S Charleston Rd","Jamestown, OH, 45335-1557","(937) 675-2728","Isaac W. Seevers","93.2","A","96","103","95.2","83.6",""
"047274","Bellbrook-Sugarcreek Local","Greene","Region 10","3757 Upper Bellbrook Rd","Bellbrook, OH, 45305-8750","(937) 848-5001","Keith A. St.Pierre","97.7","A","213","218","96.3","83.6",""
"047308","Rolling Hills Local","Guernsey","Region 12","PO Box 38","Byesville, OH, 43723-0038","(740) 432-5370","Ryan D. Caldwell","91.7","B","132","144","90.2","83.6",""
"047332","Finneytown Local","Hamilton","Region 13","8916 Fontainebleau Ter","Cincinnati, OH, 45231-4806","(513) 728-3700","Theresa M. Noe","90.4","B","103","114","89.6","83.6",""
"047340","Forest Hills Local","Hamilton","Region 13","7946 Beechmont Ave","Cincinnati, OH, 45255-4307","(513) 231-3600","Scot T. Prebles","94.9","A","524","552","96.0","83.6",""
"047365","Northwest Local","Hamilton","Region 13","3240 Banning Rd","Cincinnati, OH, 45239-5207","(513) 923-1000","Todd D. Bowling","91.5","B","610","667","87.9","83.6",""
"047373","Oak Hills Local","Hamilton","Region 13","6325 Rapid Run Rd","Cincinnati, OH, 45233-4555","(513) 574-3200","Jeffrey T. Brandt","94.6","A","609","644","93.8","83.6",""
"047381","Southwest Local","Hamilton","Region 13","230 S Elm St","Harrison, OH, 45030-1444","(513) 367-4139","John C. Hamstra","95.7","A","268","280","92.3","83.6",""
"047399","Three Rivers Local","Hamilton","Region 13","401 N Miami Ave","Cleves, OH, 45002-1024","(513) 941-6400","Craig D. Hockenberry","98.0","A","150","153","94.3","83.6",""
"047415","Arcadia Local","Hancock","Region 1","19033 State Route 12","Arcadia, OH, 44804-9714","(419) 894-6431","Bruce A. Kidder","98.1","A","51","52","93.6","83.6",""
"047423","Arlington Local","Hancock","Region 1","336 S Main St","Arlington, OH, 45814-6700","(419) 365-5121","Kevin S. Haught","100.0","A","48","48","96.5","83.6",""
"047431","Cory-Rawson Local","Hancock","Region 1","3930 County Road 26","Rawson, OH, 45881-9609","(419) 963-3415","Robert A. Hlasko","91.3","B","42","46","96.0","83.6",""
"047449","Liberty-Benton Local","Hancock","Region 1","9190 County Road 9","Findlay, OH, 45840-8811","(419) 422-8526","Ronald Kowalski","100.0","A","109","109","95.8","83.6",""
"047456","McComb Local","Hancock","Region 1","328 S Todd St","McComb, OH, 45858-0877","(419) 293-3979","Anthony D. Fenstermaker","91.8","B","45","49","95.1","83.6",""
"047464","Van Buren Local","Hancock","Region 1","217 S Main St","Van Buren, OH, 45889-9720","(419) 299-3578","Timothy L. Myers","98.6","A","71","72","95.1","83.6",""
"047472","Vanlue Local","Hancock","Region 1","PO Box 250","Vanlue, OH, 45890-0250","(419) 387-7724","Traci L. Conley","100.0","A","17","17","95.8","83.6",""
"047498","Hardin Northern Local","Hardin","Region 6","11589 State Route 81","Dola, OH, 45835-9706","(419) 759-2331","Jeffrey S. Price","100.0","A","33","33","96.0","83.6",""
"047506","Ridgemont Local","Hardin","Region 6","560 Taylor St W","Mount Victory, OH, 43340-8802","(937) 354-2441","Ellen S. Darmer","91.4","B","32","35","95.0","83.6",""
"047514","Riverdale Local","Hancock","Region 6","20613 State Route 37","Mt Blanchard, OH, 45867-9783","(419) 694-4994","Jeffrey Young","92.2","B","71","77","95.0","83.6",""
"047522","Upper Scioto Valley Local","Hardin","Region 6","PO Box 305","Mc Guffey, OH, 45859-0305","(419) 757-3231","Miklos J. Kis","89.6","B","43","48","93.0","83.6",""
"047548","Conotton Valley Union Local","Harrison","Region 12","PO Box 187","Sherrodsville, OH, 44675-0187","(740) 269-2000","Jerry T. Herman","88.9","C","32","36","94.1","83.6",""
"047571","Holgate Local","Henry","Region 1","801 Joe E Brown Ave","Holgate, OH, 43527-9802","(419) 264-5141","Kelly J. Meyers","97.0","A","32","33","95.7","83.6",""
"047589","Liberty Center Local","Henry","Region 1","PO Box 434","Liberty Center, OH, 43532-0434","(419) 533-5011","Tod A. Hug","92.9","B","78","84","94.8","83.6",""
"047597","Patrick Henry Local","Henry","Region 1","6900 State Route 18","Hamler, OH, 43524-9781","(419) 274-3015","Thomas L. Taylor","97.0","A","65","67","94.7","83.6",""
"047613","Bright Local","Highland","Region 14","PO Box 299","Mowrystown, OH, 45155-9998","(937) 442-3114","Ted C. Downing","86.9","C","53","61","92.7","83.6",""
"047621","Fairfield Local","Highland","Region 14","11611 State Route 771","Leesburg, OH, 45135-8601","(937) 780-2221","William L. Garrett","93.0","A","66","71","94.0","83.6",""
"047639","Lynchburg-Clay Local","Highland","Region 14","PO Box 515","Lynchburg, OH, 45142-0515","(937) 364-2338","Brett Justice","86.7","C","85","98","93.6","83.6",""
"047688","East Holmes Local","Holmes","Region 12","6108 County Road 77","Millersburg, OH, 44654-9136","(330) 893-2610","Erik H. Beun","89.3","B","67","75","93.5","83.6",""
"047696","West Holmes Local","Holmes","Region 9","28 W Jackson St","Millersburg, OH, 44654-1302","(330) 674-3546","William W. Sterling","92.6","B","176","190","92.9","83.6",""
"047712","Monroeville Local","Huron","Region 2","101 West St","Monroeville, OH, 44847-9797","(419) 465-2610","Gaylord R. Moore","92.7","B","51","55","94.4","83.6",""
"047720","New London Local","Huron","Region 2","2 Wildcat Dr","New London, OH, 44851-9262","(419) 929-8433","Bradley A. Romano","94.2","A","81","86","93.9","83.6",""
"047738","South Central Local","Huron","Region 2","3305 Greenwich Angling Rd","Greenwich, OH, 44837-9443","(419) 752-3815","Benjamin H. Chaffee Jr","98.4","A","61","62","92.0","83.6",""
"047746","Western Reserve Local","Huron","Region 2","3765 US Rt 20","Collins, OH, 44826","(419) 660-8508","Rodge F. Wilson","95.1","A","98","103","93.5","83.6",""
"047761","Oak Hill Union Local","Jackson","Region 16","205 Western Ave","Oak Hill, OH, 45656-1068","(740) 682-7595","Michael A. McCoy","94.1","A","96","102","93.0","83.6",""
"047787","Buckeye Local","Jefferson","Region 12","6899 State Highway 150","Dillonvale, OH, 43917-7904","(740) 769-7395","Kimberly D. Leonard","89.6","B","138","154","91.3","83.6",""
"047795","Edison Local","Jefferson","Region 12","14890 State Route 213","Hammondsville, OH, 43930-7902","(330) 532-3199","George W. Beattie","92.6","B","125","135","91.7","83.6",""
"047803","Indian Creek Local","Jefferson","Region 12","587 Bantam Ridge Rd","Wintersville, OH, 43953-4231","(740) 264-3502","Thomas C. Chappelear","82.7","D","129","156","90.1","83.6",""
"047829","Centerburg Local","Knox","Region 7","119 S Preston St","Centerburg, OH, 43011-7058","(740) 625-6346","Michael Hebenthal","94.4","A","84","89","96.2","83.6",""
"047837","Danville Local","Knox","Region 7","PO Box 30","Danville, OH, 43014-0030","(740) 599-6116","Jason T. Snively","91.1","B","51","56","93.8","83.6",""
"047845","East Knox Local","Knox","Region 7","23201 Coshocton Rd","Howard, OH, 43028-9362","(740) 599-7493","Stephen M. Larcomb","84.9","C","62","73","95.6","83.6",""
"047852","Fredericktown Local","Knox","Region 7","117 Columbus Rd","Fredericktown, OH, 43019-1272","(740) 694-2956","Matthew W. Chrispin","95.1","A","78","82","94.4","83.6",""
"047878","Kirtland Local","Lake","Region 4","9252 Chillicothe Rd","Kirtland, OH, 44094-9298","(440) 256-3360","William R. Wade","97.8","A","88","90","96.4","83.6",""
"047886","Madison Local","Lake","Region 4","1956 Red Bird Rd","Madison, OH, 44057-2122","(440) 428-2166","Angela M. Smith","89.1","B","238","267","94.0","83.6",""
"047894","Riverside Local","Lake","Region 4","585 Riverside Dr","Painesville, OH, 44077-5323","(440) 352-0668","James P. Kalis","88.7","C","299","337","94.3","83.6",""
"047902","Perry Local","Lake","Region 4","4325 Manchester Ave","Perry, OH, 44081-9413","(440) 259-9200","Jack K. Thompson","92.8","B","128","138","94.1","83.6",""
"047928","Dawson-Bryant Local","Lawrence","Region 15","222 Lane St","Coal Grove, OH, 45638-2947","(740) 532-6451","Stephen L. Easterling","95.6","A","87","91","89.0","83.6",""
"047936","Fairland Local","Lawrence","Region 15","228 Private Drive 10010","Proctorville, OH, 45669-8600","(740) 886-3100","Roni D. Hayes","93.4","A","127","136","94.7","83.6",""
"047944","Rock Hill Local","Lawrence","Region 15","2325A Co. Rd. 26","Ironton, OH, 45638-8385","(740) 532-7030","Wesley L. Hairston","95.8","A","114","119","89.3","83.6",""
"047951","South Point Local","Lawrence","Region 15","302 High St","South Point, OH, 45680","(740) 377-4315","Mark A. Christian","91.2","B","93","102","87.1","83.6",""
"047969","Symmes Valley Local","Lawrence","Region 15","14778 State Route 141","Willow Wood, OH, 45696-9015","(740) 643-2451","Darrell A. Humphreys","95.6","A","65","68","85.3","83.6",""
"047985","Johnstown-Monroe Local","Licking","Region 11","441 S Main St","Johnstown, OH, 43031-1297","(740) 967-6846","Dale L. Dickson","93.1","A","122","131","95.9","83.6",""
"047993","Lakewood Local","Licking","Region 11","PO Box 70","Hebron, OH, 43025-0070","(740) 928-5878","Mary K. Andrews","91.4","B","139","152","92.6","83.6",""
"048009","Licking Heights Local","Licking","Region 11","6539 Summit Rd SW","Pataskala, OH, 43062-8767","(740) 927-6926","Philip H. Wagner","95.0","A","208","219","94.0","83.6",""
"048017","Licking Valley Local","Licking","Region 11","1379 Licking Valley Rd","Newark, OH, 43055-9450","(740) 763-3525","David L. Hile","94.3","A","164","174","94.3","83.6",""
"048025","North Fork Local","Licking","Region 11","PO Box 497","Utica, OH, 43080-0497","(740) 892-3666","Scott L. Hartley","94.3","A","115","122","93.7","83.6",""
"048033","Northridge Local","Licking","Region 11","6066 Johnstown Utica Rd","Johnstown, OH, 43031-9408","(740) 967-6631","Scott A. Schmidt","97.2","A","106","109","95.8","83.6",""
"048041","Southwest Licking Local","Licking","Region 11","927-A South Street","Pataskala, OH, 43062","(740) 927-3941","Robert T. Jennell","89.8","B","299","333","93.7","83.6",""
"048074","Benjamin Logan Local","Logan","Region 6","4740 County Road 26","Bellefontaine, OH, 43311-9532","(937) 593-9211","David L. Harmon","97.8","A","132","135","94.2","83.6",""
"048082","Indian Lake Local","Logan","Region 6","6210 State Route 235 N","Lewistown, OH, 43333-9704","(937) 686-8601","Robert J. Underwood","99.3","A","136","137","91.9","83.6",""
"048090","Riverside Local","Logan","Region 6","2096 County Road 24 S","De Graff, OH, 43318-9406","(937) 585-5981","Scott M. Mann","89.8","B","53","59","94.8","83.6",""
"048116","Avon Local","Lorain","Region 2","36600 Detroit Rd","Avon, OH, 44011-1507","(440) 937-4680","Michael K. Laub Jr","98.0","A","291","297","96.6","83.6",""
"048124","Avon Lake City","Lorain","Region 2","175 Avon Belden Rd","Avon Lake, OH, 44012-1600","(440) 933-6210","Robert D. Scott","96.7","A","262","271","96.2","83.6",""
"048132","Clearview Local","Lorain","Region 2","4700 Broadway","Lorain, OH, 44052-5542","(440) 233-5412","Jerome M. Davis","89.9","B","134","149","82.0","83.6",""
"048140","Columbia Local","Lorain","Region 2","25796 Royalton Rd","Columbia Station, OH, 44028-9441","(440) 236-5008","Graig P. Bansek","100.0","A","86","86","95.7","83.6",""
"048157","Firelands Local","Lorain","Region 2","112 N Lake St","South Amherst, OH, 44001-2824","(440) 965-5821","Michael J. Von Gunten","93.5","A","145","155","94.7","83.6",""
"048165","Keystone Local","Lorain","Region 2","PO Box 65","Lagrange, OH, 44050-0065","(440) 355-2424","Franco Gallo","97.8","A","131","134","94.8","83.6",""
"048173","Midview Local","Lorain","Region 2","13050 Durkee Rd","Grafton, OH, 44044-1122","(440) 748-5353","Bruce R. Willingham","93.2","A","233","250","93.2","83.6",""
"048207","Anthony Wayne Local","Lucas","Region 1","PO Box 2487","Whitehouse, OH, 43571-0487","(419) 877-5377","James A. Fritz","94.6","A","313","331","95.8","83.6",""
"048215","Ottawa Hills Local","Lucas","Region 1","3600 Indian Rd","Toledo, OH, 43606-2425","(419) 536-6371","Kevin S. Miller","100.0","A","76","76","97.8","83.6",""
"048223","Springfield Local","Lucas","Region 1","6900 Hall St","Holland, OH, 43528-9485","(419) 867-5600","Matthew K. Geha","92.1","B","268","291","94.1","83.6",""
"048231","Washington Local","Lucas","Region 1","3505 W Lincolnshire Blvd","Toledo, OH, 43606-1231","(419) 473-8220","Susan M. Hayward","87.6","C","466","532","88.8","83.6",""
"048256","Jefferson Local","Madison","Region 11","906 W Main St","West Jefferson, OH, 43162-1144","(614) 879-7654","William R. Mullett","97.7","A","84","86","94.2","83.6",""
"048264","Jonathan Alder Local","Madison","Region 11","9200 US Route 42 S","Plain City, OH, 43064","(614) 873-5621","Gary L. Chapman","96.8","A","152","157","95.4","83.6",""
"048272","Madison-Plains Local","Madison","Region 11","55 Linson Rd","London, OH, 43140-9751","(740) 852-0290","Timothy Dettwiller","89.0","B","89","100","92.8","83.6",""
"048298","Austintown Local Schools","Mahoning","Region 5","700 S Raccoon Rd","Youngstown, OH, 44515-3536","(330) 797-3900","Vincent S. Colaluca","92.5","B","393","425","92.1","83.6",""
"048306","Boardman Local","Mahoning","Region 5","7410 Market St","Youngstown, OH, 44512-5612","(330) 726-3404","Timothy L. Saxton","96.4","A","323","335","93.6","83.6",""
"048314","Canfield Local","Mahoning","Region 5","100 Wadsworth St","Canfield, OH, 44406-1451","(330) 533-3303","Alex G. Geordan","97.6","A","206","211","95.9","83.6",""
"048322","Jackson-Milton Local","Mahoning","Region 5","13910 Mahoning Ave","North Jackson, OH, 44451-9616","(330) 538-3232","Kirk W. Baker","100.0","A","56","56","94.2","83.6",""
"048330","Lowellville Local","Mahoning","Region 5","52 Rocket Place","Lowellville, OH, 44436","(330) 536-6318","Eugene M. Thomas","100.0","A","54","54","94.6","83.6",""
"048348","Poland Local","Mahoning","Region 5","3199 Dobbins Rd","Poland, OH, 44514-2327","(330) 757-7000","David R. Janofa","98.4","A","182","185","95.8","83.6",""
"048355","Sebring Local","Mahoning","Region 5","510 N 14th St","Sebring, OH, 44672-1400","(330) 938-6165","Antoinette C. Viscounte","87.5","C","42","48","91.5","83.6",""
"048363","South Range Local","Mahoning","Region 5","11300 Columbiana Canfield Rd Ste B","Canfield, OH, 44406-8485","(330) 549-5226","Dennis J. Dunham","95.6","A","108","113","95.4","83.6",""
"048371","Springfield Local","Mahoning","Region 5","PO Box 549","New Middletown, OH, 44442-0549","(330) 542-2929","Thomas Yazvac","98.7","A","74","75","94.9","83.6",""
"048389","West Branch Local","Mahoning","Region 5","14277 S Main St","Beloit, OH, 44609-9504","(330) 938-9324","Timothy E. Saxton","94.0","A","140","149","94.1","83.6",""
"048397","Western Reserve Local","Mahoning","Region 5","13850 W Akron Canfield Rd","Berlin Center, OH, 44401-9752","(330) 547-4100","Douglas E. Mcglynn","95.2","A","60","63","93.6","83.6",""
"048413","Elgin Local","Marion","Region 7","1239 Keener Rd S","Marion, OH, 43302-1110","(740) 382-1101","Bruce M. Gast","95.6","A","87","91","92.3","83.6",""
"048421","Pleasant Local","Marion","Region 7","1107 Owens Rd W","Marion, OH, 43302-8421","(740) 389-4476","Jennifer L. Adams","100.0","A","83","83","95.0","83.6",""
"048439","Ridgedale Local","Marion","Region 7","3103 Hillman Ford Rd","Morral, OH, 43337-9302","(740) 382-6065","Robert A. Britton","90.7","B","39","43","94.1","83.6",""
"048447","River Valley Local","Marion","Region 7","197 Brockelsby Road","Caledonia, OH, 43314","(740) 725-5401","James P. Peterson","97.1","A","136","140","93.6","83.6",""
"048462","Black River Local","Medina","Region 7","257A County Road 40","Sullivan, OH, 44880-9731","(419) 736-3300","Chris A. Clark","90.2","B","101","112","94.7","83.6",""
"048470","Buckeye Local","Medina","Region 8","3044 Columbia Rd","Medina, OH, 44256-9411","(330) 722-8257","Kent J. Morgan","94.8","A","183","193","95.8","83.6",""
"048488","Cloverleaf Local","Medina","Region 8","8525 Friendsville Rd","Lodi, OH, 44254-9706","(330) 948-2500","Daryl G. Kubilus Jr","86.3","C","195","226","94.3","83.6",""
"048496","Highland Local","Medina","Region 8","3880 Ridge Rd","Medina, OH, 44256-7920","(330) 239-1901","Catherine L. Aukerman","97.7","A","259","265","96.0","83.6",""
"048512","Eastern Local","Meigs","Region 16","50008 State Route 681","Reedsville, OH, 45772-9022","(740) 667-6079","Steven P. Ohlinger","97.3","A","36","37","93.8","83.6",""
"048520","Meigs Local","Meigs","Region 16","41765 Pomeroy Pike","Pomeroy, OH, 45769-9411","(740) 992-2153","Scot F. Gheen","80.0","D","96","120","91.5","83.6",""
"048538","Southern Local","Meigs","Region 16","920 Elm St","Racine, OH, 45771-8902","(740) 949-2661","Anthony W. Deem","83.6","D","46","55","92.5","83.6",""
"048553","Marion Local","Mercer","Region 6","7956 State Route 119","Maria Stein, OH, 45860-9710","(419) 925-4294","Michael L. Pohlman","98.4","A","61","62","97.6","83.6",""
"048579","Parkway Local","Mercer","Region 6","400 Buckeye St","Rockford, OH, 45882-9267","(419) 363-3045","Jean M. Osterfeld","92.4","B","73","79","94.6","83.6",""
"048587","St Henry Consolidated Local","Mercer","Region 6","391 E Columbus St","Saint Henry, OH, 45883-9574","(419) 678-4834","Julie A. Garke","100.0","A","69","69","96.1","83.6",""
"048595","Fort Recovery Local","Mercer","Region 6","PO Box 604","Fort Recovery, OH, 45846-0604","(419) 375-4139","Justin M. Firks","93.5","A","58","62","96.4","83.6",""
"048611","Bethel Local","Miami","Region 10","7490 State Route 201","Tipp City, OH, 45371-7316","(937) 845-9414","Virginia D. Potter","94.7","A","72","76","95.9","83.6",""
"048629","Miami East Local","Miami","Region 10","3825 N State Route 589","Casstown, OH, 45312-9707","(937) 335-7505","Todd A. Rappold","98.9","A","91","92","95.3","83.6",""
"048637","Newton Local","Miami","Region 10","PO Box 803","Pleasant Hill, OH, 45359-0803","(937) 676-2002","Pat L. McBride","93.3","A","42","45","95.7","83.6",""
"048652","Switzerland of Ohio Local","Monroe","Region 12","304 Mill St","Woodsfield, OH, 43793-1256","(740) 472-5801","Jeffrey S. Greenley","82.2","D","148","180","91.4","83.6",""
"048678","Brookville Local","Montgomery","Region 10","75 June Pl","Brookville, OH, 45309-1621","(937) 833-2181","Timothy L. Hopkins","94.4","A","117","124","94.9","83.6",""
"048686","Jefferson Township Local","Montgomery","Region 10","2625 S Union Rd","Dayton, OH, 45417-5535","(937) 835-5682","Richard Gates","82.4","D","28","34","86.9","83.6",""
"048694","Trotwood-Madison City","Montgomery","Region 10","3594 N Snyder Rd","Trotwood, OH, 45426-3835","(937) 854-3050","Kevin A. Bell","79.3","D","142","179","81.7","83.6",""
"048702","Mad River Local","Montgomery","Region 10","801 Old Harshman Rd","Dayton, OH, 45431-1238","(937) 259-6606","Chad M. Wyen","81.3","D","165","203","88.8","83.6",""
"048710","New Lebanon Local","Montgomery","Region 10","320 S Fuls Rd","New Lebanon, OH, 45345","(937) 687-1301","Greg A. Williams","87.5","C","91","104","91.5","83.6",""
"048728","Northmont City","Montgomery","Region 10","4001 Old Salem Rd","Englewood, OH, 45322-2681","(937) 832-5000","Anthony R. Thomas","96.6","A","394","408","91.7","83.6",""
"048736","Northridge Local","Montgomery","Region 10","2008 Timber Ln","Dayton, OH, 45414-4528","(937) 278-5885","David A. Jackson","87.9","C","102","116","83.4","83.6",""
"048744","Valley View Local","Montgomery","Region 10","59 Peffley St","Germantown, OH, 45327-1021","(937) 855-6581","Richard S. Earley","95.5","A","128","134","94.6","83.6",""
"048751","Huber Heights City","Montgomery","Region 10","5954 Longford Rd","Huber Heights, OH, 45424-2943","(937) 237-6300","Susan M. Gunnell","87.1","C","411","472","88.2","83.6",""
"048777","Morgan Local","Morgan","Region 12","PO Box 509","Mc Connelsville, OH, 43756-0509","(740) 962-2782","Lori A. Snyder-Lowe","90.3","B","158","175","92.3","83.6",""
"048793","Cardington-Lincoln Local","Morrow","Region 7","121 Nichols St","Cardington, OH, 43315-1121","(419) 864-3691","Christopher B. Petrie","85.3","C","58","68","93.7","83.6",""
"048801","Highland Local","Morrow","Region 7","6506 State Route 229","Marengo, OH, 43334-0098","(419) 768-2206","Daniel W. Freund","91.7","B","132","144","94.4","83.6",""
"048819","Northmor Local","Morrow","Region 7","5247 County Road 29","Galion, OH, 44833-9742","(419) 946-8861","Chad A. Redmon","94.2","A","65","69","93.9","83.6",""
"048835","East Muskingum Local","Muskingum","Region 12","13505 John Glenn School Rd","New Concord, OH, 43762-9702","(740) 826-7655","Jill R. Sheridan","94.1","A","159","169","93.9","83.6",""
"048843","Franklin Local","Muskingum","Region 12","PO Box 428","Duncan Falls, OH, 43734-0428","(740) 674-5203","Sharon A. McDermott","98.0","A","150","153","90.2","83.6",""
"048850","Maysville Local","Muskingum","Region 12","3715 Panther Dr","Zanesville, OH, 43701-7086","(740) 453-0754","Ruth E. Zitnik","97.1","A","166","171","89.9","83.6",""
"048876","Tri-Valley Local","Muskingum","Region 12","36 E Muskingum Ave","Dresden, OH, 43821-9701","(740) 754-1442","Mark K. Neal","93.3","A","224","240","93.2","83.6",""
"048884","West Muskingum Local","Muskingum","Region 12","4880 West Pike","Zanesville, OH, 43701-9390","(740) 455-4052","Chad J. Shawger","97.5","A","118","121","92.1","83.6",""
"048900","Noble Local","Noble","Region 12","20977 Zep Rd E","Sarahsville, OH, 43779-9702","(740) 732-2084","Daniel C. Leffingwell","82.9","D","63","76","91.9","83.6",""
"048926","Benton Carroll Salem Local","Ottawa","Region 1","11685 W State Route 163","Oak Harbor, OH, 43449-1278","(419) 898-6210","Guy L. Parmigian","96.3","A","130","135","93.8","83.6",""
"048934","Danbury Local","Ottawa","Region 1","9451 E Harbor Rd","Lakeside Marblehead, OH, 43440-1310","(419) 798-5185","Daniel P. Parent","93.8","A","30","32","96.5","83.6",""
"048942","Genoa Area Local","Ottawa","Region 1","2810 N Genoa Clay Center Rd","Genoa, OH, 43430-9730","(419) 855-7741","Michael G. Ferguson","97.6","A","121","124","95.2","83.6",""
"048975","Put-In-Bay Local","Ottawa","Region 1","PO Box 659","Put In Bay, OH, 43456-0659","(419) 285-3614","Steven J. Poe","NC","NR","NC","NC","92.8","83.6",""
"048991","Antwerp Local","Paulding","Region 1","303 S. Harrmann Rd","Antwerp, OH, 45813","(419) 258-5421","Martin A. Miller","98.0","A","50","51","94.4","83.6",""
"049031","Wayne Trace Local","Paulding","Region 1","4915 US Route 127","Haviland, OH, 45851-9738","(419) 263-2415","Benjamin A. Winans","94.4","A","68","72","94.5","83.6",""
"049056","Northern Local","Perry","Region 12","8700 Sheridan Dr","Thornville, OH, 43076-9757","(740) 743-1303","Thomas P. Perkins","91.7","B","176","192","92.8","83.6",""
"049064","Southern Local","Perry","Region 16","10397 State Route 155 SE # 1","Corning, OH, 43730-9710","(740) 721-0520","Ralph G. Holbert","94.9","A","37","39","91.8","83.6",""
"049080","Logan Elm Local","Pickaway","Region 11","9579 Tarlton Rd","Circleville, OH, 43113-9448","(740) 474-7501","Timothy L. Williams","95.4","A","166","174","92.9","83.6",""
"049098","Teays Valley Local","Pickaway","Region 11","385 Viking Way","Ashville, OH, 43103-9638","(740) 983-5000","Robin N. Halley","90.7","B","273","301","93.1","83.6",""
"049106","Westfall Local","Pickaway","Region 11","19463 Pherson Pike","Williamsport, OH, 43164-9745","(740) 986-3671","Lynn P. Landis","91.7","B","111","121","94.2","83.6",""
"049122","Eastern Local","Pike","Region 15","1170 Tile Mill Rd","Beaver, OH, 45613-9435","(740) 226-4851","Neil E. Leist","88.3","C","53","60","88.4","83.6",""
"049130","Scioto Valley Local","Pike","Region 15","PO Box 600","Piketon, OH, 45661-0600","(740) 289-4456","Todd A. Burkitt","84.9","C","101","119","93.4","83.6",""
"049148","Waverly City","Pike","Region 15","1 Tiger Dr","Waverly, OH, 45690-8704","(740) 947-4770","John E. Dickens","86.9","C","126","145","89.6","83.6",""
"049155","Western Local","Pike","Region 15","PO Box 130","Latham, OH, 45646-0130","(740) 493-3113","Brock D. Brewster","77.4","F","41","53","89.6","83.6",""
"049171","Aurora City","Portage","Region 8","102 E Garfield Rd","Aurora, OH, 44202-8854","(330) 562-6106","Pat R. Ciccantelli","97.3","A","249","256","96.0","83.6",""
"049189","Crestwood Local","Portage","Region 8","11260 Bowen Rd","Mantua, OH, 44255-9454","(330) 357-8206","David M. Toth","93.1","A","163","175","95.0","83.6",""
"049197","Field Local","Portage","Region 8","2900 State Route 43","Mogadore, OH, 44260-9715","(330) 673-2659","David O. Heflinger","90.6","B","154","170","93.9","83.6",""
"049205","James A Garfield Local","Portage","Region 8","10235 State Route 88","Garrettsville, OH, 44231-9205","(330) 527-4336","Ted A. Lysiak","94.8","A","110","116","94.7","83.6",""
"049213","Rootstown Local","Portage","Region 8","4140 State Route 44","Rootstown, OH, 44272-9697","(330) 325-9911","Andrew A. Hawkins","92.8","B","90","97","95.7","83.6",""
"049221","Southeast Local","Portage","Region 8","8245 Tallmadge Rd","Ravenna, OH, 44266-8547","(330) 654-5841","Robert C. Dunn","91.7","B","132","144","94.2","83.6",""
"049239","Streetsboro City","Portage","Region 8","9000 Kirby Ln","Streetsboro, OH, 44241-1725","(330) 626-4900","Richard M. Daulbaugh","92.2","B","141","153","93.5","83.6",""
"049247","Waterloo Local","Portage","Region 8","1464 Industry Rd","Atwater, OH, 44201-9349","(330) 947-2664","Shawn M. Braman","95.8","A","91","95","94.3","83.6",""
"049270","National Trail Local","Preble","Region 10","6940 Oxford Gettysburg Rd","New Paris, OH, 45347-9065","(937) 437-3333","Jeff J. Parker","100.0","A","62","62","93.0","83.6",""
"049288","Preble Shawnee Local","Preble","Region 10","124 Bloomfield St","Camden, OH, 45311-1154","(937) 452-1283","Matt M. Bishop","87.1","C","88","101","93.3","83.6",""
"049296","Twin Valley Community Local","Preble","Region 10","100 Education Dr","West Alexandria, OH, 45381-1184","(937) 839-4688","Robert O. Fischer","97.3","A","72","74","93.5","83.6",""
"049312","Columbus Grove Local","Putnam","Region 1","201 W Cross St","Columbus Grove, OH, 45830-1237","(419) 659-2639","George N. Verhoff","100.0","A","81","81","95.1","83.6",""
"049320","Continental Local","Putnam","Region 1","5211 State Route 634","Continental, OH, 45831-9155","(419) 596-3671","Danny F. Kissell","94.7","A","36","38","94.2","83.6",""
"049338","Jennings Local","Putnam","Region 1","PO Box 98","Fort Jennings, OH, 45844-0098","(419) 286-2238","Nicholas T. Langhals","100.0","A","32","32","96.5","83.6",""
"049346","Kalida Local","Putnam","Region 1","PO Box 269","Kalida, OH, 45853-0269","(419) 532-3534","Karl D. Lammers","96.5","A","55","57","95.0","83.6",""
"049353","Leipsic Local","Putnam","Region 1","232 Oak St","Leipsic, OH, 45856-1312","(419) 943-2165","Greg A. Williamson","98.2","A","55","56","91.9","83.6",""
"049361","Miller City-New Cleveland Local","Putnam","Region 1","PO Box 38","Miller City, OH, 45864-0038","(419) 876-3172","Kerry D. Johnson","100.0","A","34","34","97.8","83.6",""
"049379","Ottawa-Glandorf Local","Putnam","Region 1","630 Glendale Ave","Ottawa, OH, 45875-1162","(419) 523-5261","Donald T. Horstman","97.0","A","129","133","95.0","83.6",""
"049387","Ottoville Local","Putnam","Region 1","PO Box 248","Ottoville, OH, 45876-0248","(419) 453-3356","Scott J. Mangas","100.0","A","24","24","96.0","83.6",""
"049395","Pandora-Gilboa Local","Putnam","Region 1","410 Rocket Ridge","Pandora, OH, 45877-0389","(419) 384-3227","R. Todd T. Schmutz","93.3","A","42","45","96.8","83.6",""
"049411","Clear Fork Valley Local","Richland","Region 7","92 Hines Ave","Bellville, OH, 44813-1232","(419) 886-3855","Janice J. Wyckoff","97.0","A","130","134","94.2","83.6",""
"049429","Crestview Local","Richland","Region 7","1575 State Route 96","Ashland, OH, 44805-9262","(419) 895-1700","Larry R. Dunlap","98.8","A","85","86","93.8","83.6",""
"049437","Lexington Local","Richland","Region 7","103 Clever Ln","Lexington, OH, 44904-1209","(419) 884-2132","James M. Ziegelhofer","95.6","A","172","180","94.2","83.6",""
"049445","Lucas Local","Richland","Region 7","84 Lucas North Rd","Lucas, OH, 44843-9532","(419) 892-2338","Bradley A. Herman","93.9","A","46","49","95.5","83.6",""
"049452","Madison Local","Richland","Region 7","1379 Grace St","Mansfield, OH, 44905-2742","(419) 589-2600","Shelley L. Hilderbrand","90.3","B","186","206","90.9","83.6",""
"049460","Plymouth-Shiloh Local","Richland","Region 7","365 Sandusky St","Plymouth, OH, 44865-1135","(419) 687-4733","James E. Metcalf","96.8","A","61","63","92.2","83.6",""
"049478","Ontario Local","Richland","Region 7","457 Shelby Ontario Rd","Mansfield, OH, 44906-1029","(419) 747-4311","Lisa A. Carmichael","98.6","A","142","144","92.5","83.6",""
"049494","Adena Local","Ross","Region 15","3367 County Road 550","Frankfort, OH, 45628-9503","(740) 998-4633","John W. Balzer","93.7","A","74","79","93.6","83.6",""
"049502","Huntington Local","Ross","Region 15","188 Huntsman Rd","Chillicothe, OH, 45601-9378","(740) 663-5892","Peter T. Ruby","83.5","D","91","109","89.7","83.6",""
"049510","Paint Valley Local","Ross","Region 15","7454 Us Highway 50 W","Bainbridge, OH, 45612-9708","(740) 634-2826","Timothy J. Winland","85.7","C","60","70","92.8","83.6",""
"049528","Southeastern Local","Ross","Region 15","2003 Lancaster Rd","Chillicothe, OH, 45601-8213","(740) 774-2003","Brian Justice","89.7","B","87","97","93.4","83.6",""
"049536","Union-Scioto Local","Ross","Region 15","1565 Egypt Pike","Chillicothe, OH, 45601-3974","(740) 773-4102","Matthew G. Thornsberry","93.5","A","144","154","93.0","83.6",""
"049544","Zane Trace Local","Ross","Region 15","946 State Route 180","Chillicothe, OH, 45601-8141","(740) 775-1355","Jerry L. Mowery","95.7","A","112","117","93.8","83.6",""
"049569","Lakota Local","Sandusky","Region 1","5200 County Road 13","Kansas, OH, 44841-9617","(419) 986-6650","Chad D. Coffman","97.4","A","74","76","94.7","83.6","K-3 Literacy data may be incomplete due to local reporting error. Contact district for more information."
"049577","Woodmore Local","Sandusky","Region 1","349 Rice St","Elmore, OH, 43416-9404","(419) 862-1060","Timothy S. Rettig","96.6","A","84","87","95.4","83.6",""
"049593","Bloom-Vernon Local","Scioto","Region 15","PO Box 237","South Webster, OH, 45682-0237","(740) 778-2281","Marc L. Kreischer","100.0","A","42","42","93.5","83.6",""
"049601","Clay Local","Scioto","Region 15","44 Clay High St","Portsmouth, OH, 45662-8817","(740) 354-6645","William T. Warnock","95.5","A","42","44","93.2","83.6",""
"049619","Green Local","Scioto","Region 15","4070 Gallia Pike","Franklin Furnace, OH, 45629-8889","(740) 354-9221","Jodi B. Armstrong","88.9","C","32","36","93.0","83.6",""
"049627","Minford Local","Scioto","Region 15","PO Box 204","Minford, OH, 45653-0204","(740) 820-3896","Jeremy A. Litteral","93.4","A","113","121","93.2","83.6",""
"049635","Northwest Local","Scioto","Region 15","800 Mohawk Dr","Mc Dermott, OH, 45652-9000","(740) 259-5558","Anthony T. Jenkins","98.4","A","120","122","89.8","83.6",""
"049643","Valley Local","Scioto","Region 15","1821 State Route 728","Lucasville, OH, 45648-8510","(740) 259-3115","Jeffrey S. Rolfe","98.8","A","81","82","93.2","83.6",""
"049650","Washington-Nile Local","Scioto","Region 15","15332 Us Highway 52","West Portsmouth, OH, 45663-9093","(740) 858-1111","Donald J. Stricklett","97.2","A","105","108","93.2","83.6",""
"049668","Wheelersburg Local","Scioto","Region 15","PO Box 340","Wheelersburg, OH, 45694-0340","(740) 574-8484","Mark W. Knapp","97.2","A","106","109","93.9","83.6",""
"049684","Seneca East Local","Seneca","Region 7","13343 E US Highway 224","Attica, OH, 44807-9301","(419) 426-7041","Laura A. Kagy","100.0","A","77","77","94.9","83.6",""
"049700","Hopewell-Loudon Local","Seneca","Region 7","PO Box 400","Bascom, OH, 44809-0400","(419) 937-2216","David R. Alvarado","96.8","A","61","63","94.5","83.6",""
"049718","New Riegel Local","Seneca","Region 7","44 N Perry St","New Riegel, OH, 44853-9776","(419) 595-2265","David A. Rombach","100.0","A","25","25","96.4","83.6",""
"049726","Old Fort Local","Seneca","Region 7","7635 N County Rd 51","Tiffin, OH, 44883","(419) 992-4291","Stephen J. Anway","97.1","A","34","35","94.4","83.6",""
"049759","Anna Local","Shelby","Region 6","PO Box 169","Anna, OH, 45302-0169","(937) 394-2011","Andrew A. Bixler","98.9","A","90","91","96.0","83.6",""
"049767","Botkins Local","Shelby","Region 6","404 E State St","Botkins, OH, 45306-8006","(937) 693-3756","Jeffrey T. McPheron","100.0","A","48","48","95.2","83.6",""
"049775","Fairlawn Local","Shelby","Region 6","18800 Johnston Rd","Sidney, OH, 45365-9755","(937) 492-1974","Jeffrey R. Hobbs","100.0","A","46","46","95.7","83.6",""
"049783","Fort Loramie Local","Shelby","Region 6","PO Box 26","Fort Loramie, OH, 45845-0026","(937) 295-3931","Daniel B. Holland","97.5","A","77","79","96.0","83.6",""
"049791","Hardin-Houston Local","Shelby","Region 6","5300 Houston Rd","Houston, OH, 45333-8630","(937) 295-3010","Larry J. Claypool","89.0","B","65","73","94.5","83.6",""
"049809","Jackson Center Local","Shelby","Region 6","PO Box 849","Jackson Center, OH, 45334-0849","(937) 596-6053","William M. Reichert","100.0","A","26","26","94.4","83.6",""
"049817","Russia Local","Shelby","Region 6","100 School St","Russia, OH, 45363-9811","(937) 295-3454","Steven J. Rose","100.0","A","44","44","98.0","83.6",""
"049833","Canton Local","Stark","Region 9","600 Faircrest St SE","Canton, OH, 44707-1118","(330) 484-8010","Stephen P. Milano","86.6","C","136","157","87.3","83.6",""
"049841","Fairless Local","Stark","Region 9","11885 Navarre Rd SW","Navarre, OH, 44662-9485","(330) 767-3577","Broc A. Bidlack","93.9","A","123","131","93.0","83.6",""
"049858","Jackson Local","Stark","Region 9","7602 Fulton Dr NW","Massillon, OH, 44646-9393","(330) 830-8000","Christopher A. Diloreto","98.4","A","508","516","95.5","83.6",""
"049866","Lake Local","Stark","Region 9","436 King Church Ave SW","Uniontown, OH, 44685-8220","(330) 877-9383","Kevin T. Tobin","96.4","A","271","281","94.8","83.6",""
"049874","Louisville City","Stark","Region 9","407 E Main St","Louisville, OH, 44641-1419","(330) 875-1666","Michele M. Shaffer","96.3","A","234","243","94.1","83.6",""
"049882","Marlington Local","Stark","Region 9","10320 Moulin Ave NE","Alliance, OH, 44601-5906","(330) 823-7458","Joseph A. Knoll","95.6","A","172","180","93.7","83.6",""
"049890","Minerva Local","Stark","Region 9","406 East St","Minerva, OH, 44657-1429","(330) 868-4332","Gary M. Chaddock","93.3","A","152","163","92.8","83.6",""
"049908","Northwest Local","Stark","Region 9","2309 Locust St S","Canal Fulton, OH, 44614-9389","(330) 854-2291","Michael R. Shreffler","95.1","A","136","143","94.7","83.6",""
"049916","Osnaburg Local","Stark","Region 9","310 Browning Ct N","East Canton, OH, 44730-1248","(330) 488-1609","Todd D. Boggs","93.5","A","58","62","93.2","83.6",""
"049924","Perry Local","Stark","Region 9","4201 13th St SW","Massillon, OH, 44646-3447","(330) 477-8121","Scott A. Beatty","97.2","A","383","394","92.3","83.6",""
"049932","Plain Local","Stark","Region 9","901 44th St NW","Canton, OH, 44709-1611","(330) 492-3500","Brent W. May","92.9","B","404","435","90.7","83.6",""
"049940","Sandy Valley Local","Stark","Region 9","5362 State Route 183 NE","Magnolia, OH, 44643-8481","(330) 866-3339","David J. Fischer","90.4","B","113","125","93.0","83.6",""
"049957","Tuslaw Local","Stark","Region 9","1835 Manchester Ave NW","Massillon, OH, 44647-9623","(330) 837-7813","Melissa M. Marconi","97.2","A","137","141","94.7","83.6",""
"049973","Woodridge Local","Summit","Region 8","4411 Quick Rd","Peninsula, OH, 44264-9706","(330) 928-9074","Walter C. Davis","92.2","B","130","141","94.1","83.6",""
"049981","Copley-Fairlawn City","Summit","Region 8","3797 Ridgewood Rd","Copley, OH, 44321-1665","(330) 664-4800","Brian E. Poe","96.1","A","248","258","96.1","83.6",""
"049999","Coventry Local","Summit","Region 8","2910 S Main St","Akron, OH, 44319-1849","(330) 644-8489","Russell A. Chaboudy","93.7","A","179","191","92.9","83.6",""
"050005","Manchester Local","Summit","Region 8","6075 Manchester Rd","Akron, OH, 44319-4654","(330) 882-6926","James E. Robinson","99.0","A","102","103","95.3","83.6",""
"050013","Green Local","Summit","Region 8","PO Box 218","Green, OH, 44232-0218","(330) 896-7500","Jeffrey L. Miller II","97.5","A","308","316","94.3","83.6",""
"050021","Hudson City","Summit","Region 8","2400 Hudson Aurora Rd","Hudson, OH, 44236-2322","(330) 653-1200","Phillip T. Herman","97.8","A","392","401","96.8","83.6",""
"050039","Mogadore Local","Summit","Region 8","1 S Cleveland Ave","Mogadore, OH, 44260-1514","(330) 628-9946","John A. Knapp","94.2","A","65","69","93.9","83.6",""
"050047","Nordonia Hills City","Summit","Region 8","9370 Olde Eight Rd","Northfield, OH, 44067","(330) 467-0580","Joseph P. Clark","97.2","A","313","322","95.2","83.6",""
"050054","Revere Local","Summit","Region 8","PO Box 340","Bath, OH, 44210-0340","(330) 666-4155","Matthew L. Montgomery","96.5","A","194","201","96.8","83.6",""
"050062","Springfield Local","Summit","Region 8","2410 Massillon Rd","Akron, OH, 44312-4258","(330) 798-1111","Charles Sincere","87.4","C","180","206","89.5","83.6",""
"050070","Twinsburg City","Summit","Region 8","11136 Ravenna Rd","Twinsburg, OH, 44087-1022","(330) 486-2000","Kathryn M. Powers","98.8","A","325","329","95.4","83.6",""
"050096","Bloomfield-Mespo Local","Trumbull","Region 5","2077 Park Rd W","North Bloomfield, OH, 44450-0730","(440) 685-4752","John R. Sheets","86.7","C","13","15","93.5","83.6",""
"050112","Bristol Local","Trumbull","Region 5","PO Box 260","Bristolville, OH, 44402-0260","(330) 889-3882","Christopher J. Dray","94.2","A","49","52","93.5","83.6",""
"050120","Brookfield Local","Trumbull","Region 5","614 Bedford Rd SE","Brookfield, OH, 44403-9756","(330) 448-4930","Velina J. Taylor","93.7","A","89","95","91.5","83.6",""
"050138","Champion Local","Trumbull","Region 5","5976 Mahoning Ave NW","Warren, OH, 44483-1144","(330) 847-2330","Pamela F. Hood","93.5","A","101","108","94.2","83.6",""
"050153","Mathews Local","Trumbull","Region 5","4096 Cadwallader Sonk Rd","Cortland, OH, 44410-9445","(330) 637-7000","Lewis L. Lowery","94.6","A","53","56","94.8","83.6",""
"050161","Howland Local","Trumbull","Region 5","8200 South St SE","Warren, OH, 44484-2447","(330) 856-8200","Kevin R. Spicher","88.2","C","194","220","94.0","83.6",""
"050179","Joseph Badger Local","Trumbull","Region 5","7119 State Route 7","Kinsman, OH, 44428-9788","(330) 876-2800","David D. Bair","87.1","C","54","62","94.5","83.6",""
"050187","Lakeview Local","Trumbull","Region 5","300 Hillman Dr","Cortland, OH, 44410-1562","(330) 637-8741","Robert A. Wilson","95.7","A","134","140","94.9","83.6",""
"050195","Liberty Local","Trumbull","Region 5","4115 Shady Rd","Youngstown, OH, 44505-1353","(330) 759-0807","Joseph S. Nohra","90.0","B","81","90","88.9","83.6",""
"050203","Lordstown Local","Trumbull","Region 5","1824 Salt Springs Rd","Warren, OH, 44481-9735","(330) 824-2534","Terry P. Armstrong","92.7","B","38","41","95.5","83.6",""
"050211","Maplewood Local","Trumbull","Region 5","2414 Greenville Rd","Cortland, OH, 44410-9648","(330) 637-7506","Perry D. Nicholas","100.0","A","60","60","92.9","83.6",""
"050229","McDonald Local","Trumbull","Region 5","600 Iowa Ave","Mc Donald, OH, 44437-1677","(330) 530-8051","Kevin R. O'Connell","94.2","A","65","69","95.0","83.6",""
"050237","Southington Local","Trumbull","Region 5","2482 State Route 534","Southington, OH, 44470-9524","(330) 898-7480","Rocco Nero","93.8","A","45","48","93.3","83.6",""
"050245","LaBrae Local","Trumbull","Region 5","1001 N Leavitt Rd","Leavittsburg, OH, 44430-9644","(330) 898-1393","Anthony J. Calderone","96.8","A","122","126","90.1","83.6",""
"050252","Weathersfield Local","Trumbull","Region 5","1334 Seaborn St","Mineral Ridge, OH, 44440-9571","(330) 652-0287","Damon J. Dohar","95.2","A","79","83","92.4","83.6",""
"050278","Garaway Local","Tuscarawas","Region 12","146 Dover Rd NW","Sugarcreek, OH, 44681-9309","(330) 852-2421","James A. Millet","92.7","B","76","82","93.8","83.6",""
"050286","Indian Valley Local","Tuscarawas","Region 12","PO Box 171","Gnadenhutten, OH, 44629-0171","(740) 254-4334","Gary I. Wentworth","96.7","A","117","121","93.0","83.6",""
"050294","Strasburg-Franklin Local","Tuscarawas","Region 12","140 N Bodmer Ave","Strasburg, OH, 44680-1122","(330) 878-5571","Cynthia L. Brown","100.0","A","54","54","94.5","83.6",""
"050302","Tuscarawas Valley Local","Tuscarawas","Region 12","2637 Tuscarawas Valley Rd NE","Zoarville, OH, 44656-9692","(330) 859-2213","Mark A. Murphy","96.6","A","114","118","94.2","83.6",""
"050328","Fairbanks Local","Union","Region 11","11158 State Route 38","Milford Center, OH, 43045-9764","(937) 349-3731","Robert J. Humble","96.4","A","80","83","96.4","83.6",""
"050336","North Union Local School District","Union","Region 11","12920 State Route 739","Richwood, OH, 43344-9728","(740) 943-2509","Richard J. Baird","93.7","A","104","111","93.0","83.6",""
"050351","Crestview Local","Van Wert","Region 1","531 E Tully St","Convoy, OH, 45832-8864","(419) 749-9100","Michael Y. Estes","98.2","A","54","55","94.8","83.6",""
"050369","Lincolnview Local","Van Wert","Region 1","15945 Middle Point Rd","Van Wert, OH, 45891-9769","(419) 968-2226","Jeffrey T. Snyder","100.0","A","66","66","94.5","83.6",""
"050393","Vinton County Local","Vinton","Region 16","307 W High St","Mc Arthur, OH, 45651-1093","(740) 596-5218","Rick L. Brooks","87.6","C","155","177","89.8","83.6",""
"050419","Carlisle Local","Warren","Region 13","724 Fairview Dr","Carlisle, OH, 45005-3148","(937) 746-0710","Larry R. Hook","90.8","B","108","119","94.4","83.6",""
"050427","Springboro Community City","Warren","Region 13","1685 S Main St","Springboro, OH, 45066-1524","(937) 748-3960","Daniel J. Schroer","95.6","A","414","433","96.6","83.6",""
"050435","Kings Local","Warren","Region 13","1797 King Ave","Kings Mills, OH, 45034","(513) 398-8050","Timothy A. Ackermann","93.2","A","288","309","96.4","83.6",""
"050443","Little Miami Local","Warren","Region 13","7247 Zoar Rd","Maineville, OH, 45039-8098","(513) 899-2264","Gregory Power","96.1","A","269","280","94.8","83.6",""
"050450","Mason City","Warren","Region 13","211 N East St","Mason, OH, 45040-1760","(513) 398-0474","Gail E. Kist","97.1","A","848","873","96.0","83.6",""
"050468","Wayne Local","Warren","Region 13","659 Dayton Rd","Waynesville, OH, 45068-9588","(513) 897-6971","Patrick E. Dubbs","97.4","A","113","116","95.9","83.6",""
"050484","Fort Frye Local","Washington","Region 16","510 5th St","Beverly, OH, 45715-8916","(740) 984-2497","Stephanie D. Starcher","96.0","A","72","75","91.8","83.6",""
"050492","Frontier Local","Washington","Region 16","44870 State Route 7","New Matamoras, OH, 45767-6149","(740) 865-3473","Brian J. Rentsch","92.5","B","49","53","94.6","83.6",""
"050500","Warren Local","Washington","Region 16","220 Sweetapple Rd","Vincent, OH, 45784-5005","(740) 678-2366","Kyle R. Newton","92.0","B","161","175","95.0","83.6",""
"050518","Wolf Creek Local","Washington","Region 16","PO Box 67","Waterford, OH, 45786-0067","(740) 984-2373","Douglas A. Baldwin","93.9","A","46","49","92.9","83.6",""
"050534","Chippewa Local","Wayne","Region 9","56 N Portage St","Doylestown, OH, 44230-1350","(330) 658-6368","Sandra J. Stebly","99.1","A","112","113","94.9","83.6",""
"050542","Dalton Local","Wayne","Region 9","PO Box 514","Dalton, OH, 44618-0514","(330) 828-2267","James R. Saxer","97.2","A","70","72","94.9","83.6",""
"050559","Green Local","Wayne","Region 9","PO Box 438","Smithville, OH, 44677-0438","(330) 669-3921","Dean E. Frank","95.1","A","97","102","95.0","83.6",""
"050567","Norwayne Local","Wayne","Region 9","350 S Main St","Creston, OH, 44217-9665","(330) 435-6382","Karen E. O'Hare","92.4","B","85","92","94.1","83.6",""
"050575","Northwestern Local","Wayne","Region 9","7571 N Elyria Rd","West Salem, OH, 44287-9707","(419) 846-3151","Jeffrey N. Layton","94.4","A","85","90","93.3","83.6",""
"050583","Southeast Local","Wayne","Region 9","9048 Dover Rd","Apple Creek, OH, 44606-9408","(330) 698-3001","James J. Ritchie","96.2","A","101","105","93.0","83.6",""
"050591","Triway Local","Wayne","Region 9","3205 Shreve Rd","Wooster, OH, 44691-4439","(330) 264-9491","Nathan G. Schindewolf","94.7","A","124","131","93.2","83.6",""
"050617","Edgerton Local","Williams","Region 1","111 E River St","Edgerton, OH, 43517-9623","(419) 298-2112","Kermit E. Riehle","98.0","A","50","51","94.1","83.6",""
"050625","Edon Northwest Local","Williams","Region 1","802 W Indiana St","Edon, OH, 43518-9627","(419) 272-3213","Anthony J. Stevens","94.1","A","32","34","94.8","83.6",""
"050633","Millcreek-West Unity Local","Williams","Region 1","1401 W Jackson St","West Unity, OH, 43570-9465","(419) 924-2365","Larry E. Long","94.0","A","47","50","93.9","83.6",""
"050641","North Central Local","Williams","Region 1","400 E Baubice St","Pioneer, OH, 43554-9637","(419) 737-2392","William D. Hanak","93.8","A","30","32","95.4","83.6",""
"050658","Stryker Local","Williams","Region 1","400 S Defiance St","Stryker, OH, 43557-9307","(419) 682-6961","Nate R. Johnson","100.0","A","27","27","94.7","83.6",""
"050674","Eastwood Local","Wood","Region 1","4800 Sugar Ridge Rd","Pemberville, OH, 43450-9626","(419) 833-6411","William B. Welker","97.7","A","127","130","96.1","83.6",""
"050682","Elmwood Local","Wood","Region 1","7650 Jerry City Rd","Bloomdale, OH, 44817-9763","(419) 655-2583","Tony D. Borton","97.8","A","88","90","95.3","83.6",""
"050690","Lake Local","Wood","Region 1","28090 Lemoyne Rd","Millbury, OH, 43447-9747","(419) 661-6690","James T. Witt","90.9","B","120","132","93.2","83.6",""
"050708","North Baltimore Local","Wood","Region 1","201 S Main St","North Baltimore, OH, 45872-1354","(419) 257-3531","Ryan G. Delaney","94.7","A","54","57","92.8","83.6",""
"050716","Northwood Local Schools","Wood","Region 1","600 Lemoyne Rd","Northwood, OH, 43619-1810","(419) 691-3888","Gregory A. Clark","94.0","A","78","83","92.0","83.6",""
"050724","Otsego Local","Wood","Region 1","18505 Tontogany Creek Rd Ste 1","Bowling Green, OH, 43402-0290","(419) 823-4381","Adam E. Koch","95.7","A","110","115","95.7","83.6",""
"050740","Mohawk Local","Wyandot","Region 7","295 State Highway 231","Sycamore, OH, 44882-9434","(419) 927-2414","Kenneth D. Ratliff","97.1","A","68","70","95.7","83.6",""
"061903","Adams County Ohio Valley Local","Adams","Region 14","141 Lloyd Rd","West Union, OH, 45693-8974","(937) 544-5586","Richard A. Seas","91.6","B","274","299","93.1","83.6",""
"065680","Gallia County Local","Gallia","Region 16","4836 State Route 325","Patriot, OH, 45658-8960","(740) 379-9085","Jude E. Meyers","96.3","A","154","160","89.0","83.6",""
"069682","East Guernsey Local","Guernsey","Region 12","PO Box 128","Old Washington, OH, 43768-0128","(740) 489-5190","Adam M. Pittis","94.8","A","73","77","93.8","83.6",""
"091397","Tri-County North Local","Preble","Region 10","436 N Commerce St","Lewisburg, OH, 45338-0040","(937) 962-2671","William K. Derringer","92.4","B","85","92","95.0","83.6",""
"139303","Monroe Local","Butler","Region 13","500 Yankee Rd","Monroe, OH, 45050-1068","(513) 539-2536","Philip F. Cagwin","95.6","A","151","158","93.3","83.6",""
